{
"type": "FeatureCollection",
"name": "delimita",
"crs": { "type": "name", "properties": { "name": "urn:ogc:def:crs:OGC:1.3:CRS84" } },
"features": [
{ "type": "Feature", "properties": { "id": 1 }, "geometry": { "type": "MultiPolygon", "coordinates": [ [ [ [ -38.523716978798198, -13.010501828699471 ], [ -38.525564592989035, -13.009803682695752 ], [ -38.525395346974321, -13.008334480478842 ], [ -38.525953649075895, -13.008216178812216 ], [ -38.526011229299151, -13.006619839915013 ], [ -38.525912759424529, -13.005442899704997 ], [ -38.524373295093113, -13.005193211328866 ], [ -38.524459668116506, -13.003905516463478 ], [ -38.522001750315454, -13.002321017907402 ], [ -38.521104399348516, -13.003109357363639 ], [ -38.521801676226275, -13.003816286891013 ], [ -38.522719128552893, -13.004585337633706 ], [ -38.521789990014803, -13.005536145214949 ], [ -38.521918990660929, -13.006098018150704 ], [ -38.522798974326477, -13.006716818870197 ], [ -38.522837275327021, -13.007533626429431 ], [ -38.523353518146791, -13.008565268314156 ], [ -38.523716978798198, -13.010501828699471 ] ] ] ] } }
]
}
