{
  "attribution" : {
    "url" : "https://ohsome.org/copyrights",
    "text" : "© OpenStreetMap contributors"
  },
  "apiVersion" : "1.10.4",
  "type" : "FeatureCollection",
  "features" : [{
    "type" : "Feature",
    "geometry" : {
      "type" : "LineString",
      "coordinates" : [
        [
          -38.5224793,
          -13.0037782
        ],
        [
          -38.5224497,
          -13.003808
        ],
        [
          -38.5223718,
          -13.0038709
        ]
      ]
    },
    "properties" : {
      "@changesetId" : 85578220,
      "@osmId" : "way/396232531",
      "@osmType" : "way",
      "@validFrom" : "2026-03-01T18:21:38Z",
      "@validTo" : "2026-03-01T18:21:39Z",
      "@version" : 4,
      "bicycle" : "yes",
      "footway" : "crossing",
      "highway" : "footway"
    }
  }, {
    "type" : "Feature",
    "geometry" : {
      "type" : "LineString",
      "coordinates" : [
        [
          -38.5215197,
          -13.0028663
        ],
        [
          -38.5216106,
          -13.0027969
        ],
        [
          -38.521627,
          -13.0027834
        ]
      ]
    },
    "properties" : {
      "@changesetId" : 134920863,
      "@osmId" : "way/807012501",
      "@osmType" : "way",
      "@validFrom" : "2026-03-01T18:21:38Z",
      "@validTo" : "2026-03-01T18:21:39Z",
      "@version" : 3,
      "bicycle" : "yes",
      "footway" : "crossing",
      "highway" : "footway"
    }
  }, {
    "type" : "Feature",
    "geometry" : {
      "type" : "LineString",
      "coordinates" : [
        [
          -38.5217783,
          -13.0026774
        ],
        [
          -38.521845,
          -13.0026269
        ],
        [
          -38.5218926,
          -13.0025878
        ]
      ]
    },
    "properties" : {
      "@changesetId" : 178478992,
      "@osmId" : "way/807012502",
      "@osmType" : "way",
      "@validFrom" : "2026-03-01T18:21:38Z",
      "@validTo" : "2026-03-01T18:21:39Z",
      "@version" : 5,
      "bicycle" : "yes",
      "footway" : "crossing",
      "highway" : "footway",
      "lit" : "yes",
      "surface" : "concrete"
    }
  }, {
    "type" : "Feature",
    "geometry" : {
      "type" : "LineString",
      "coordinates" : [
        [
          -38.5232604,
          -13.0069306
        ],
        [
          -38.5232423,
          -13.0069742
        ],
        [
          -38.5232224,
          -13.0070269
        ],
        [
          -38.5231903,
          -13.007103
        ],
        [
          -38.523171,
          -13.0071084
        ]
      ]
    },
    "properties" : {
      "@changesetId" : 176108563,
      "@osmId" : "way/972072091",
      "@osmType" : "way",
      "@validFrom" : "2026-03-01T18:21:38Z",
      "@validTo" : "2026-03-01T18:21:39Z",
      "@version" : 4,
      "bicycle" : "yes",
      "footway" : "crossing",
      "highway" : "footway"
    }
  }, {
    "type" : "Feature",
    "geometry" : {
      "type" : "LineString",
      "coordinates" : [
        [
          -38.5236384,
          -13.0062763
        ],
        [
          -38.5236423,
          -13.006351
        ],
        [
          -38.5236467,
          -13.0064108
        ],
        [
          -38.5236503,
          -13.0064421
        ],
        [
          -38.5236379,
          -13.0064749
        ],
        [
          -38.5235786,
          -13.0064959
        ],
        [
          -38.5235268,
          -13.0065859
        ],
        [
          -38.5234925,
          -13.0066443
        ],
        [
          -38.5234961,
          -13.0067049
        ],
        [
          -38.5235173,
          -13.0067447
        ],
        [
          -38.5235173,
          -13.0067853
        ],
        [
          -38.5235141,
          -13.0068722
        ],
        [
          -38.5235182,
          -13.0069116
        ],
        [
          -38.5235392,
          -13.0069364
        ],
        [
          -38.5235337,
          -13.0069559
        ],
        [
          -38.5235692,
          -13.0069701
        ],
        [
          -38.5243435,
          -13.00698
        ]
      ]
    },
    "properties" : {
      "@changesetId" : 176110308,
      "@osmId" : "way/1451659283",
      "@osmType" : "way",
      "@validFrom" : "2026-03-01T18:21:38Z",
      "@validTo" : "2026-03-01T18:21:39Z",
      "@version" : 2,
      "foot" : "yes",
      "footway" : "sidewalk",
      "highway" : "footway",
      "motor_vehicle" : "no",
      "surface" : "concrete"
    }
  }, {
    "type" : "Feature",
    "geometry" : {
      "type" : "LineString",
      "coordinates" : [
        [
          -38.5244006,
          -13.0074015
        ],
        [
          -38.5243904,
          -13.0074014
        ],
        [
          -38.5243606,
          -13.0074012
        ],
        [
          -38.5243252,
          -13.007401
        ],
        [
          -38.524317,
          -13.0074009
        ]
      ]
    },
    "properties" : {
      "@changesetId" : 175116033,
      "@osmId" : "way/1453600574",
      "@osmType" : "way",
      "@validFrom" : "2026-03-01T18:21:38Z",
      "@validTo" : "2026-03-01T18:21:39Z",
      "@version" : 1,
      "crossing" : "marked",
      "crossing:markings" : "yes",
      "footway" : "crossing",
      "highway" : "footway"
    }
  }, {
    "type" : "Feature",
    "geometry" : {
      "type" : "LineString",
      "coordinates" : [
        [
          -38.5232654,
          -13.0040937
        ],
        [
          -38.523304,
          -13.0041878
        ],
        [
          -38.5234027,
          -13.0044366
        ],
        [
          -38.523436,
          -13.0045338
        ],
        [
          -38.5234542,
          -13.0045693
        ],
        [
          -38.5234424,
          -13.0045725
        ],
        [
          -38.5234617,
          -13.0046383
        ],
        [
          -38.5234853,
          -13.0047523
        ],
        [
          -38.52351,
          -13.0048861
        ],
        [
          -38.5235338,
          -13.0050232
        ],
        [
          -38.5235411,
          -13.0051192
        ],
        [
          -38.5235411,
          -13.0053011
        ],
        [
          -38.5235207,
          -13.0055216
        ],
        [
          -38.5234767,
          -13.0057454
        ],
        [
          -38.523451,
          -13.0058488
        ],
        [
          -38.5234006,
          -13.0060548
        ],
        [
          -38.5234209,
          -13.0059074
        ],
        [
          -38.523436,
          -13.005806
        ],
        [
          -38.5234456,
          -13.0057255
        ],
        [
          -38.5234617,
          -13.0056074
        ],
        [
          -38.5234757,
          -13.0054642
        ],
        [
          -38.5234875,
          -13.0053617
        ],
        [
          -38.5234903,
          -13.0053006
        ],
        [
          -38.5234928,
          -13.0052457
        ],
        [
          -38.523495,
          -13.0051192
        ],
        [
          -38.523496,
          -13.0050073
        ],
        [
          -38.5234971,
          -13.0049143
        ],
        [
          -38.523483,
          -13.0047979
        ],
        [
          -38.523466,
          -13.0047075
        ],
        [
          -38.5234412,
          -13.0046089
        ],
        [
          -38.5234242,
          -13.0045447
        ],
        [
          -38.523379,
          -13.004389
        ],
        [
          -38.5233334,
          -13.0042702
        ],
        [
          -38.5232624,
          -13.0041282
        ],
        [
          -38.5231839,
          -13.0040105
        ],
        [
          -38.5231467,
          -13.0039565
        ],
        [
          -38.5230978,
          -13.0038962
        ],
        [
          -38.5227681,
          -13.0035112
        ],
        [
          -38.5226831,
          -13.0034138
        ],
        [
          -38.5226388,
          -13.003363
        ],
        [
          -38.5226152,
          -13.0033337
        ],
        [
          -38.5226013,
          -13.0033076
        ],
        [
          -38.522641,
          -13.0033201
        ],
        [
          -38.5226828,
          -13.0033494
        ],
        [
          -38.5227289,
          -13.0033933
        ],
        [
          -38.5227772,
          -13.0034299
        ],
        [
          -38.5228319,
          -13.0034811
        ],
        [
          -38.5228834,
          -13.0035313
        ]
      ]
    },
    "properties" : {
      "@changesetId" : 176097417,
      "@osmId" : "way/1458073735",
      "@osmType" : "way",
      "@validFrom" : "2026-03-01T18:21:38Z",
      "@validTo" : "2026-03-01T18:21:39Z",
      "@version" : 3,
      "footway" : "sidewalk",
      "highway" : "footway",
      "smoothness" : "good",
      "surface" : "paving_stones",
      "tactile_paving" : "yes"
    }
  }, {
    "type" : "Feature",
    "geometry" : {
      "type" : "LineString",
      "coordinates" : [
        [
          -38.5226794,
          -13.0035915
        ],
        [
          -38.522691,
          -13.0035806
        ],
        [
          -38.5227232,
          -13.0035514
        ],
        [
          -38.5227583,
          -13.0035199
        ],
        [
          -38.5227681,
          -13.0035112
        ]
      ]
    },
    "properties" : {
      "@changesetId" : 175848250,
      "@osmId" : "way/1458074788",
      "@osmType" : "way",
      "@validFrom" : "2026-03-01T18:21:38Z",
      "@validTo" : "2026-03-01T18:21:39Z",
      "@version" : 2,
      "crossing" : "marked",
      "crossing:markings" : "zebra",
      "footway" : "crossing",
      "highway" : "footway",
      "kerb" : "yes",
      "wheelchair" : "yes"
    }
  }, {
    "type" : "Feature",
    "geometry" : {
      "type" : "LineString",
      "coordinates" : [
        [
          -38.5235337,
          -13.0069559
        ],
        [
          -38.5235249,
          -13.0069638
        ],
        [
          -38.5235088,
          -13.0069898
        ],
        [
          -38.5234964,
          -13.0070392
        ],
        [
          -38.523505,
          -13.0070485
        ]
      ]
    },
    "properties" : {
      "@changesetId" : 177081766,
      "@osmId" : "way/1459630752",
      "@osmType" : "way",
      "@validFrom" : "2026-03-01T18:21:38Z",
      "@validTo" : "2026-03-01T18:21:39Z",
      "@version" : 2,
      "crossing" : "marked",
      "crossing:markings" : "zebra",
      "footway" : "crossing",
      "highway" : "footway",
      "kerb" : "yes",
      "surface" : "asphalt",
      "wheelchair" : "no"
    }
  }, {
    "type" : "Feature",
    "geometry" : {
      "type" : "LineString",
      "coordinates" : [
        [
          -38.5226794,
          -13.0035915
        ],
        [
          -38.5227394,
          -13.0036561
        ],
        [
          -38.5227798,
          -13.0036971
        ],
        [
          -38.5228117,
          -13.003735
        ],
        [
          -38.5228745,
          -13.0038056
        ],
        [
          -38.5230682,
          -13.0040337
        ],
        [
          -38.5231597,
          -13.004153
        ],
        [
          -38.5232066,
          -13.0042256
        ],
        [
          -38.5232502,
          -13.0043106
        ],
        [
          -38.5232854,
          -13.0044123
        ],
        [
          -38.5233152,
          -13.0045129
        ],
        [
          -38.5233418,
          -13.0046259
        ],
        [
          -38.5233631,
          -13.0047296
        ],
        [
          -38.5233647,
          -13.0047525
        ],
        [
          -38.5233705,
          -13.0048334
        ],
        [
          -38.5233694,
          -13.0049236
        ],
        [
          -38.5233684,
          -13.0050678
        ],
        [
          -38.5233673,
          -13.005242
        ],
        [
          -38.5233609,
          -13.0055044
        ],
        [
          -38.5233535,
          -13.0056299
        ],
        [
          -38.523346,
          -13.0057668
        ],
        [
          -38.5233322,
          -13.0058923
        ],
        [
          -38.5233056,
          -13.0060593
        ],
        [
          -38.523263,
          -13.0062905
        ],
        [
          -38.5232428,
          -13.0064202
        ],
        [
          -38.5232321,
          -13.0064948
        ],
        [
          -38.5232257,
          -13.0066037
        ],
        [
          -38.5232289,
          -13.0067126
        ],
        [
          -38.5232417,
          -13.0068423
        ],
        [
          -38.5232604,
          -13.0069306
        ],
        [
          -38.5233269,
          -13.0073339
        ],
        [
          -38.5233567,
          -13.0074573
        ],
        [
          -38.5233971,
          -13.0075766
        ],
        [
          -38.5234429,
          -13.0077052
        ],
        [
          -38.5235004,
          -13.0078348
        ],
        [
          -38.52356,
          -13.007952
        ],
        [
          -38.5236387,
          -13.0080816
        ],
        [
          -38.5237143,
          -13.0081781
        ],
        [
          -38.523758,
          -13.0082383
        ],
        [
          -38.5237717,
          -13.0082642
        ],
        [
          -38.5237766,
          -13.0082818
        ],
        [
          -38.5237798,
          -13.0083108
        ],
        [
          -38.5237745,
          -13.0083363
        ],
        [
          -38.5237595,
          -13.0083515
        ],
        [
          -38.5237361,
          -13.0083622
        ],
        [
          -38.5237117,
          -13.0083637
        ],
        [
          -38.5236888,
          -13.0083529
        ],
        [
          -38.5236707,
          -13.0083357
        ],
        [
          -38.5236334,
          -13.0082866
        ],
        [
          -38.5235639,
          -13.0081843
        ],
        [
          -38.5234927,
          -13.0080708
        ],
        [
          -38.5234031,
          -13.0079121
        ],
        [
          -38.5233143,
          -13.0077275
        ],
        [
          -38.5232682,
          -13.0075859
        ],
        [
          -38.5232382,
          -13.0074556
        ],
        [
          -38.5232107,
          -13.0073027
        ],
        [
          -38.523171,
          -13.0071084
        ],
        [
          -38.5231377,
          -13.0069401
        ],
        [
          -38.5231017,
          -13.0067348
        ],
        [
          -38.5230882,
          -13.0066006
        ],
        [
          -38.5230827,
          -13.0064664
        ],
        [
          -38.5230832,
          -13.006366
        ],
        [
          -38.5230984,
          -13.0062828
        ],
        [
          -38.5231594,
          -13.00603
        ],
        [
          -38.5232265,
          -13.0057954
        ],
        [
          -38.5232667,
          -13.0056115
        ],
        [
          -38.5232825,
          -13.0055052
        ],
        [
          -38.5232951,
          -13.0053099
        ],
        [
          -38.5232935,
          -13.0051789
        ],
        [
          -38.523292,
          -13.0050654
        ],
        [
          -38.5232817,
          -13.0049616
        ],
        [
          -38.5232601,
          -13.0048863
        ],
        [
          -38.5232319,
          -13.0048217
        ],
        [
          -38.5232045,
          -13.0047811
        ],
        [
          -38.5231871,
          -13.0047553
        ],
        [
          -38.5230234,
          -13.0045258
        ],
        [
          -38.5228858,
          -13.0043217
        ],
        [
          -38.5227375,
          -13.0041356
        ],
        [
          -38.5225422,
          -13.0039074
        ],
        [
          -38.5224497,
          -13.003808
        ]
      ]
    },
    "properties" : {
      "@changesetId" : 175113523,
      "@osmId" : "way/470033389",
      "@osmType" : "way",
      "@validFrom" : "2026-03-01T18:21:38Z",
      "@validTo" : "2026-03-01T18:21:39Z",
      "@version" : 7,
      "footway" : "sidewalk",
      "highway" : "footway",
      "lit" : "yes",
      "smoothness" : "excellent",
      "surface" : "concrete",
      "tactile_paving" : "no"
    }
  }, {
    "type" : "Feature",
    "geometry" : {
      "type" : "LineString",
      "coordinates" : [
        [
          -38.5244006,
          -13.0074015
        ],
        [
          -38.5244003,
          -13.0075039
        ],
        [
          -38.5243974,
          -13.0077253
        ],
        [
          -38.5244127,
          -13.0077758
        ],
        [
          -38.5244617,
          -13.0078121
        ],
        [
          -38.5244945,
          -13.0078131
        ],
        [
          -38.5247291,
          -13.0078171
        ],
        [
          -38.5247905,
          -13.0078157
        ],
        [
          -38.5248424,
          -13.0078015
        ],
        [
          -38.5248702,
          -13.0077659
        ],
        [
          -38.5248826,
          -13.0077317
        ],
        [
          -38.5248877,
          -13.0073429
        ],
        [
          -38.5249184,
          -13.0072497
        ],
        [
          -38.5249622,
          -13.0071998
        ],
        [
          -38.525028,
          -13.0071578
        ],
        [
          -38.5250799,
          -13.0071457
        ],
        [
          -38.5254628,
          -13.0071486
        ],
        [
          -38.525484,
          -13.0071407
        ],
        [
          -38.5255015,
          -13.0071115
        ],
        [
          -38.5255044,
          -13.0070902
        ],
        [
          -38.5254928,
          -13.0070674
        ],
        [
          -38.5254713,
          -13.0070509
        ]
      ]
    },
    "properties" : {
      "@changesetId" : 175082411,
      "@osmId" : "way/1451659284",
      "@osmType" : "way",
      "@validFrom" : "2026-03-01T18:21:38Z",
      "@validTo" : "2026-03-01T18:21:39Z",
      "@version" : 2,
      "foot" : "yes",
      "footway" : "sidewalk",
      "highway" : "footway",
      "motor_vehicle" : "no",
      "surface" : "concrete",
      "tactile_paving" : "no"
    }
  }, {
    "type" : "Feature",
    "geometry" : {
      "type" : "LineString",
      "coordinates" : [
        [
          -38.5234036,
          -13.0066079
        ],
        [
          -38.5234511,
          -13.0065016
        ],
        [
          -38.5234784,
          -13.006448
        ],
        [
          -38.523507,
          -13.0063929
        ],
        [
          -38.5234824,
          -13.0063552
        ],
        [
          -38.5234652,
          -13.0063525
        ],
        [
          -38.5234235,
          -13.0063604
        ],
        [
          -38.523398,
          -13.0063974
        ],
        [
          -38.523357,
          -13.0065234
        ],
        [
          -38.523338,
          -13.0067085
        ],
        [
          -38.5233337,
          -13.0068025
        ],
        [
          -38.5233527,
          -13.0069155
        ],
        [
          -38.5234027,
          -13.0072133
        ],
        [
          -38.5234597,
          -13.0074764
        ],
        [
          -38.5235375,
          -13.0076965
        ],
        [
          -38.523553,
          -13.0077287
        ],
        [
          -38.5235988,
          -13.007819
        ],
        [
          -38.5236782,
          -13.0079617
        ],
        [
          -38.5237479,
          -13.0080593
        ],
        [
          -38.5238369,
          -13.0081584
        ],
        [
          -38.5239568,
          -13.0082685
        ],
        [
          -38.524148,
          -13.0083733
        ],
        [
          -38.5242354,
          -13.0083977
        ],
        [
          -38.5242721,
          -13.0083962
        ],
        [
          -38.5243057,
          -13.0083557
        ],
        [
          -38.5242945,
          -13.0083079
        ],
        [
          -38.5242563,
          -13.0082896
        ],
        [
          -38.5241263,
          -13.0082969
        ]
      ]
    },
    "properties" : {
      "@changesetId" : 176110308,
      "@osmId" : "way/1451659285",
      "@osmType" : "way",
      "@validFrom" : "2026-03-01T18:21:38Z",
      "@validTo" : "2026-03-01T18:21:39Z",
      "@version" : 3,
      "foot" : "yes",
      "footway" : "sidewalk",
      "highway" : "footway",
      "motor_vehicle" : "no",
      "surface" : "concrete",
      "tactile_paving" : "no"
    }
  }, {
    "type" : "Feature",
    "geometry" : {
      "type" : "LineString",
      "coordinates" : [
        [
          -38.5246655,
          -13.0083825
        ],
        [
          -38.524546,
          -13.0083939
        ],
        [
          -38.5244871,
          -13.0083823
        ],
        [
          -38.5244676,
          -13.008364
        ],
        [
          -38.5244569,
          -13.0083412
        ],
        [
          -38.5244422,
          -13.0081641
        ],
        [
          -38.5244277,
          -13.0079968
        ],
        [
          -38.5244307,
          -13.00797
        ],
        [
          -38.5244476,
          -13.007944
        ]
      ]
    },
    "properties" : {
      "@changesetId" : 175107547,
      "@osmId" : "way/1453405510",
      "@osmType" : "way",
      "@validFrom" : "2026-03-01T18:21:38Z",
      "@validTo" : "2026-03-01T18:21:39Z",
      "@version" : 2,
      "bicycle" : "no",
      "foot" : "yes",
      "footway" : "sidewalk",
      "highway" : "footway",
      "motor_vehicle" : "no",
      "surface" : "concrete",
      "tactile_paving" : "yes"
    }
  }, {
    "type" : "Feature",
    "geometry" : {
      "type" : "LineString",
      "coordinates" : [
        [
          -38.5244476,
          -13.007944
        ],
        [
          -38.5244977,
          -13.0078865
        ],
        [
          -38.5244966,
          -13.0078522
        ],
        [
          -38.5244947,
          -13.0078191
        ],
        [
          -38.5244945,
          -13.0078131
        ]
      ]
    },
    "properties" : {
      "@changesetId" : 176097060,
      "@osmId" : "way/1453405511",
      "@osmType" : "way",
      "@validFrom" : "2026-03-01T18:21:38Z",
      "@validTo" : "2026-03-01T18:21:39Z",
      "@version" : 2,
      "crossing" : "marked",
      "crossing:markings" : "zebra",
      "footway" : "crossing",
      "highway" : "footway",
      "kerb" : "no",
      "surface" : "asphalt",
      "wheelchair" : "yes"
    }
  }, {
    "type" : "Feature",
    "geometry" : {
      "type" : "LineString",
      "coordinates" : [
        [
          -38.5244422,
          -13.0081641
        ],
        [
          -38.5244348,
          -13.0081649
        ],
        [
          -38.5244137,
          -13.0081663
        ],
        [
          -38.5243916,
          -13.0081669
        ],
        [
          -38.5243851,
          -13.0081665
        ],
        [
          -38.5243792,
          -13.0081667
        ],
        [
          -38.5243568,
          -13.0081668
        ],
        [
          -38.5243297,
          -13.008167
        ],
        [
          -38.5243229,
          -13.008167
        ]
      ]
    },
    "properties" : {
      "@changesetId" : 175112699,
      "@osmId" : "way/1453405512",
      "@osmType" : "way",
      "@validFrom" : "2026-03-01T18:21:38Z",
      "@validTo" : "2026-03-01T18:21:39Z",
      "@version" : 2,
      "crossing" : "marked",
      "crossing:markings" : "zebra",
      "footway" : "crossing",
      "highway" : "footway",
      "kerb" : "yes",
      "wheelchair" : "no"
    }
  }, {
    "type" : "Feature",
    "geometry" : {
      "type" : "LineString",
      "coordinates" : [
        [
          -38.5243128,
          -13.0082095
        ],
        [
          -38.5242494,
          -13.0082127
        ],
        [
          -38.5241557,
          -13.0082258
        ],
        [
          -38.5241139,
          -13.008225
        ],
        [
          -38.5240718,
          -13.0082192
        ],
        [
          -38.5240441,
          -13.0082044
        ],
        [
          -38.5240128,
          -13.0081791
        ],
        [
          -38.5238284,
          -13.0079814
        ],
        [
          -38.5237515,
          -13.0078672
        ],
        [
          -38.523667,
          -13.0077101
        ],
        [
          -38.5236024,
          -13.0075669
        ],
        [
          -38.5235963,
          -13.0075465
        ]
      ]
    },
    "properties" : {
      "@changesetId" : 175108725,
      "@osmId" : "way/1453564362",
      "@osmType" : "way",
      "@validFrom" : "2026-03-01T18:21:38Z",
      "@validTo" : "2026-03-01T18:21:39Z",
      "@version" : 1,
      "footway" : "sidewalk",
      "highway" : "footway"
    }
  }, {
    "type" : "Feature",
    "geometry" : {
      "type" : "LineString",
      "coordinates" : [
        [
          -38.5247581,
          -13.008519
        ],
        [
          -38.5245769,
          -13.0085263
        ],
        [
          -38.5244482,
          -13.0085396
        ],
        [
          -38.5244033,
          -13.0085481
        ],
        [
          -38.524392,
          -13.0085565
        ],
        [
          -38.5243858,
          -13.0085699
        ],
        [
          -38.5243861,
          -13.0085873
        ],
        [
          -38.5243927,
          -13.0087691
        ],
        [
          -38.5244098,
          -13.0092433
        ],
        [
          -38.5243845,
          -13.0092456
        ],
        [
          -38.5244006,
          -13.0094998
        ]
      ]
    },
    "properties" : {
      "@changesetId" : 176107808,
      "@osmId" : "way/1453564363",
      "@osmType" : "way",
      "@validFrom" : "2026-03-01T18:21:38Z",
      "@validTo" : "2026-03-01T18:21:39Z",
      "@version" : 2,
      "footway" : "sidewalk",
      "highway" : "footway",
      "smoothness" : "good",
      "surface" : "concrete",
      "tactile_paving" : "yes"
    }
  }, {
    "type" : "Feature",
    "geometry" : {
      "type" : "LineString",
      "coordinates" : [
        [
          -38.5244006,
          -13.0094998
        ],
        [
          -38.5244055,
          -13.0095679
        ],
        [
          -38.5244357,
          -13.0095917
        ],
        [
          -38.5245158,
          -13.0095564
        ],
        [
          -38.5248419,
          -13.0094105
        ],
        [
          -38.5248488,
          -13.0093763
        ],
        [
          -38.5248425,
          -13.0093014
        ]
      ]
    },
    "properties" : {
      "@changesetId" : 175111360,
      "@osmId" : "way/1453573066",
      "@osmType" : "way",
      "@validFrom" : "2026-03-01T18:21:38Z",
      "@validTo" : "2026-03-01T18:21:39Z",
      "@version" : 1,
      "foot" : "yes",
      "footway" : "sidewalk",
      "highway" : "footway",
      "lit" : "yes",
      "smoothness" : "good",
      "surface" : "concrete",
      "tactile_paving" : "no"
    }
  }, {
    "type" : "Feature",
    "geometry" : {
      "type" : "LineString",
      "coordinates" : [
        [
          -38.5248425,
          -13.0093014
        ],
        [
          -38.5248308,
          -13.0091991
        ]
      ]
    },
    "properties" : {
      "@changesetId" : 175111858,
      "@osmId" : "way/1453574913",
      "@osmType" : "way",
      "@validFrom" : "2026-03-01T18:21:38Z",
      "@validTo" : "2026-03-01T18:21:39Z",
      "@version" : 1,
      "footway" : "sidewalk",
      "highway" : "footway",
      "lit" : "yes",
      "smoothness" : "good",
      "surface" : "concrete",
      "tactile_paving" : "yes"
    }
  }, {
    "type" : "Feature",
    "geometry" : {
      "type" : "LineString",
      "coordinates" : [
        [
          -38.5248308,
          -13.0091991
        ],
        [
          -38.524815,
          -13.0090469
        ]
      ]
    },
    "properties" : {
      "@changesetId" : 175111858,
      "@osmId" : "way/1453574914",
      "@osmType" : "way",
      "@validFrom" : "2026-03-01T18:21:38Z",
      "@validTo" : "2026-03-01T18:21:39Z",
      "@version" : 1,
      "footway" : "sidewalk",
      "highway" : "footway",
      "lit" : "yes",
      "smoothness" : "intermediate",
      "surface" : "sett",
      "tactile_paving" : "no"
    }
  }, {
    "type" : "Feature",
    "geometry" : {
      "type" : "LineString",
      "coordinates" : [
        [
          -38.524815,
          -13.0090469
        ],
        [
          -38.5247581,
          -13.008519
        ]
      ]
    },
    "properties" : {
      "@changesetId" : 175111858,
      "@osmId" : "way/1453574915",
      "@osmType" : "way",
      "@validFrom" : "2026-03-01T18:21:38Z",
      "@validTo" : "2026-03-01T18:21:39Z",
      "@version" : 1,
      "footway" : "sidewalk",
      "highway" : "footway",
      "lit" : "yes",
      "smoothness" : "good",
      "surface" : "concrete",
      "tactile_paving" : "yes"
    }
  }, {
    "type" : "Feature",
    "geometry" : {
      "type" : "LineString",
      "coordinates" : [
        [
          -38.5244179,
          -13.0084267
        ],
        [
          -38.5243992,
          -13.0083934
        ],
        [
          -38.5243876,
          -13.008346
        ],
        [
          -38.5243853,
          -13.0081782
        ],
        [
          -38.5243851,
          -13.0081665
        ],
        [
          -38.5243843,
          -13.0081455
        ]
      ]
    },
    "properties" : {
      "@changesetId" : 175112699,
      "@osmId" : "way/1453577319",
      "@osmType" : "way",
      "@validFrom" : "2026-03-01T18:21:38Z",
      "@validTo" : "2026-03-01T18:21:39Z",
      "@version" : 1,
      "footway" : "sidewalk",
      "highway" : "footway"
    }
  }, {
    "type" : "Feature",
    "geometry" : {
      "type" : "LineString",
      "coordinates" : [
        [
          -38.5244179,
          -13.0084267
        ],
        [
          -38.5244383,
          -13.0084734
        ],
        [
          -38.5244472,
          -13.0085322
        ],
        [
          -38.5244482,
          -13.0085396
        ]
      ]
    },
    "properties" : {
      "@changesetId" : 175113078,
      "@osmId" : "way/1453588582",
      "@osmType" : "way",
      "@validFrom" : "2026-03-01T18:21:38Z",
      "@validTo" : "2026-03-01T18:21:39Z",
      "@version" : 1,
      "crossing" : "marked",
      "crossing:markings" : "zebra",
      "footway" : "crossing",
      "highway" : "footway"
    }
  }, {
    "type" : "Feature",
    "geometry" : {
      "type" : "LineString",
      "coordinates" : [
        [
          -38.5243128,
          -13.0082095
        ],
        [
          -38.5243216,
          -13.0082077
        ],
        [
          -38.5243229,
          -13.008167
        ],
        [
          -38.5243213,
          -13.007975
        ],
        [
          -38.5243189,
          -13.0077928
        ],
        [
          -38.524317,
          -13.0074009
        ],
        [
          -38.5243184,
          -13.0071258
        ],
        [
          -38.524306,
          -13.0070933
        ],
        [
          -38.5242862,
          -13.0070732
        ],
        [
          -38.5242505,
          -13.0070528
        ],
        [
          -38.5241345,
          -13.0070514
        ],
        [
          -38.5235282,
          -13.007047
        ],
        [
          -38.523505,
          -13.0070485
        ],
        [
          -38.5234867,
          -13.0070642
        ],
        [
          -38.5235143,
          -13.007188
        ],
        [
          -38.5235598,
          -13.0074122
        ],
        [
          -38.5235963,
          -13.0075465
        ]
      ]
    },
    "properties" : {
      "@changesetId" : 175116033,
      "@osmId" : "way/1453600573",
      "@osmType" : "way",
      "@validFrom" : "2026-03-01T18:21:38Z",
      "@validTo" : "2026-03-01T18:21:39Z",
      "@version" : 1,
      "footway" : "sidewalk",
      "highway" : "footway",
      "lit" : "limited",
      "smoothness" : "excellent",
      "surface" : "concrete",
      "tactile_paving" : "no"
    }
  }, {
    "type" : "Feature",
    "geometry" : {
      "type" : "LineString",
      "coordinates" : [
        [
          -38.5238567,
          -13.0098781
        ],
        [
          -38.5238627,
          -13.0099151
        ],
        [
          -38.5238659,
          -13.0099215
        ],
        [
          -38.5238725,
          -13.0099282
        ],
        [
          -38.5238756,
          -13.0099292
        ],
        [
          -38.5238835,
          -13.0099262
        ],
        [
          -38.5239798,
          -13.009871
        ],
        [
          -38.5241187,
          -13.0097863
        ],
        [
          -38.5241259,
          -13.0097995
        ],
        [
          -38.5242576,
          -13.0097169
        ],
        [
          -38.5242664,
          -13.009707
        ],
        [
          -38.5242735,
          -13.0096894
        ],
        [
          -38.5242766,
          -13.0096773
        ],
        [
          -38.5242775,
          -13.0096557
        ],
        [
          -38.5242767,
          -13.0096345
        ],
        [
          -38.5242762,
          -13.0096204
        ],
        [
          -38.5242713,
          -13.0095428
        ]
      ]
    },
    "properties" : {
      "@changesetId" : 176107808,
      "@osmId" : "way/1459568213",
      "@osmType" : "way",
      "@validFrom" : "2026-03-01T18:21:38Z",
      "@validTo" : "2026-03-01T18:21:39Z",
      "@version" : 2,
      "bicycle" : "no",
      "footway" : "sidewalk",
      "highway" : "footway",
      "smoothness" : "good",
      "surface" : "concrete",
      "tactile_paving" : "no"
    }
  }, {
    "type" : "Feature",
    "geometry" : {
      "type" : "LineString",
      "coordinates" : [
        [
          -38.5242713,
          -13.0095428
        ],
        [
          -38.5242291,
          -13.0086789
        ],
        [
          -38.5242268,
          -13.0086302
        ],
        [
          -38.5242183,
          -13.0086091
        ],
        [
          -38.5241983,
          -13.0085994
        ],
        [
          -38.5241613,
          -13.0085994
        ],
        [
          -38.524059,
          -13.0086016
        ],
        [
          -38.5238659,
          -13.00861
        ],
        [
          -38.5236819,
          -13.0086278
        ]
      ]
    },
    "properties" : {
      "@changesetId" : 176107808,
      "@osmId" : "way/1459568214",
      "@osmType" : "way",
      "@validFrom" : "2026-03-01T18:21:38Z",
      "@validTo" : "2026-03-01T18:21:39Z",
      "@version" : 2,
      "bicycle" : "no",
      "footway" : "sidewalk",
      "highway" : "footway",
      "smoothness" : "good",
      "surface" : "concrete",
      "tactile_paving" : "yes"
    }
  }, {
    "type" : "Feature",
    "geometry" : {
      "type" : "LineString",
      "coordinates" : [
        [
          -38.5236819,
          -13.0086278
        ],
        [
          -38.5236652,
          -13.0086288
        ],
        [
          -38.523654,
          -13.0086367
        ],
        [
          -38.5236514,
          -13.0086516
        ],
        [
          -38.5236575,
          -13.0086867
        ],
        [
          -38.5238567,
          -13.0098781
        ]
      ]
    },
    "properties" : {
      "@changesetId" : 176107808,
      "@osmId" : "way/1459568215",
      "@osmType" : "way",
      "@validFrom" : "2026-03-01T18:21:38Z",
      "@validTo" : "2026-03-01T18:21:39Z",
      "@version" : 2,
      "bicycle" : "no",
      "footway" : "sidewalk",
      "highway" : "footway",
      "layer" : "1",
      "smoothness" : "bad",
      "surface" : "concrete",
      "tactile_paving" : "yes"
    }
  }, {
    "type" : "Feature",
    "geometry" : {
      "type" : "LineString",
      "coordinates" : [
        [
          -38.5245848,
          -13.0096994
        ],
        [
          -38.5245777,
          -13.0096853
        ],
        [
          -38.5245689,
          -13.0096664
        ],
        [
          -38.5245476,
          -13.009621
        ],
        [
          -38.5245238,
          -13.0095722
        ],
        [
          -38.5245158,
          -13.0095564
        ]
      ]
    },
    "properties" : {
      "@changesetId" : 176108563,
      "@osmId" : "way/1459568216",
      "@osmType" : "way",
      "@validFrom" : "2026-03-01T18:21:38Z",
      "@validTo" : "2026-03-01T18:21:39Z",
      "@version" : 3,
      "crossing" : "marked",
      "crossing:markings" : "zebra",
      "footway" : "crossing",
      "highway" : "footway",
      "kerb" : "lowered"
    }
  }, {
    "type" : "Feature",
    "geometry" : {
      "type" : "LineString",
      "coordinates" : [
        [
          -38.5244055,
          -13.0095679
        ],
        [
          -38.5243926,
          -13.0095744
        ],
        [
          -38.5243376,
          -13.009603
        ],
        [
          -38.5242836,
          -13.0096312
        ],
        [
          -38.5242767,
          -13.0096345
        ]
      ]
    },
    "properties" : {
      "@changesetId" : 176097891,
      "@osmId" : "way/1459568217",
      "@osmType" : "way",
      "@validFrom" : "2026-03-01T18:21:38Z",
      "@validTo" : "2026-03-01T18:21:39Z",
      "@version" : 1,
      "crossing" : "marked",
      "crossing:markings" : "zebra",
      "footway" : "crossing",
      "highway" : "footway",
      "kerb" : "raised"
    }
  }, {
    "type" : "Feature",
    "geometry" : {
      "type" : "LineString",
      "coordinates" : [
        [
          -38.5237881,
          -13.0099519
        ],
        [
          -38.5237746,
          -13.0098575
        ],
        [
          -38.5237515,
          -13.0097248
        ]
      ]
    },
    "properties" : {
      "@changesetId" : 176108563,
      "@osmId" : "way/1459630734",
      "@osmType" : "way",
      "@validFrom" : "2026-03-01T18:21:38Z",
      "@validTo" : "2026-03-01T18:21:39Z",
      "@version" : 1,
      "bicycle" : "no",
      "footway" : "sidewalk",
      "highway" : "footway",
      "smoothness" : "good",
      "surface" : "concrete",
      "tactile_paving" : "yes"
    }
  }, {
    "type" : "Feature",
    "geometry" : {
      "type" : "LineString",
      "coordinates" : [
        [
          -38.5237515,
          -13.0097248
        ],
        [
          -38.5237196,
          -13.0095423
        ]
      ]
    },
    "properties" : {
      "@changesetId" : 176108563,
      "@osmId" : "way/1459630735",
      "@osmType" : "way",
      "@validFrom" : "2026-03-01T18:21:38Z",
      "@validTo" : "2026-03-01T18:21:39Z",
      "@version" : 1,
      "bicycle" : "no",
      "footway" : "sidewalk",
      "highway" : "footway",
      "smoothness" : "bad",
      "surface" : "paving_stones",
      "tactile_paving" : "yes"
    }
  }, {
    "type" : "Feature",
    "geometry" : {
      "type" : "LineString",
      "coordinates" : [
        [
          -38.5237196,
          -13.0095423
        ],
        [
          -38.5236688,
          -13.0092153
        ],
        [
          -38.5235902,
          -13.0087433
        ],
        [
          -38.5235675,
          -13.0086201
        ]
      ]
    },
    "properties" : {
      "@changesetId" : 176108563,
      "@osmId" : "way/1459630736",
      "@osmType" : "way",
      "@validFrom" : "2026-03-01T18:21:38Z",
      "@validTo" : "2026-03-01T18:21:39Z",
      "@version" : 1,
      "bicycle" : "no",
      "footway" : "sidewalk",
      "highway" : "footway",
      "smoothness" : "good",
      "surface" : "concrete",
      "tactile_paving" : "yes"
    }
  }, {
    "type" : "Feature",
    "geometry" : {
      "type" : "LineString",
      "coordinates" : [
        [
          -38.5235675,
          -13.0086201
        ],
        [
          -38.5235459,
          -13.0084937
        ]
      ]
    },
    "properties" : {
      "@changesetId" : 176108563,
      "@osmId" : "way/1459630737",
      "@osmType" : "way",
      "@validFrom" : "2026-03-01T18:21:38Z",
      "@validTo" : "2026-03-01T18:21:39Z",
      "@version" : 1,
      "bicycle" : "no",
      "footway" : "sidewalk",
      "highway" : "footway",
      "smoothness" : "bad",
      "surface" : "concrete",
      "tactile_paving" : "no"
    }
  }, {
    "type" : "Feature",
    "geometry" : {
      "type" : "LineString",
      "coordinates" : [
        [
          -38.5235459,
          -13.0084937
        ],
        [
          -38.5235318,
          -13.0084102
        ]
      ]
    },
    "properties" : {
      "@changesetId" : 176108563,
      "@osmId" : "way/1459630738",
      "@osmType" : "way",
      "@validFrom" : "2026-03-01T18:21:38Z",
      "@validTo" : "2026-03-01T18:21:39Z",
      "@version" : 1,
      "bicycle" : "no",
      "footway" : "sidewalk",
      "highway" : "footway",
      "smoothness" : "good",
      "surface" : "paving_stones",
      "tactile_paving" : "no"
    }
  }, {
    "type" : "Feature",
    "geometry" : {
      "type" : "LineString",
      "coordinates" : [
        [
          -38.5235318,
          -13.0084102
        ],
        [
          -38.523518,
          -13.0083543
        ],
        [
          -38.5235073,
          -13.0083538
        ],
        [
          -38.5234951,
          -13.0083602
        ],
        [
          -38.5233176,
          -13.0084934
        ]
      ]
    },
    "properties" : {
      "@changesetId" : 176108563,
      "@osmId" : "way/1459630739",
      "@osmType" : "way",
      "@validFrom" : "2026-03-01T18:21:38Z",
      "@validTo" : "2026-03-01T18:21:39Z",
      "@version" : 1,
      "bicycle" : "no",
      "footway" : "sidewalk",
      "highway" : "footway",
      "smoothness" : "bad",
      "surface" : "concrete",
      "tactile_paving" : "no"
    }
  }, {
    "type" : "Feature",
    "geometry" : {
      "type" : "LineString",
      "coordinates" : [
        [
          -38.5237881,
          -13.0099519
        ],
        [
          -38.5237899,
          -13.0099657
        ],
        [
          -38.5237895,
          -13.0099751
        ],
        [
          -38.5237829,
          -13.0099815
        ],
        [
          -38.5237668,
          -13.0099875
        ],
        [
          -38.5236339,
          -13.0100351
        ],
        [
          -38.5236292,
          -13.0100344
        ]
      ]
    },
    "properties" : {
      "@changesetId" : 176108563,
      "@osmId" : "way/1459630740",
      "@osmType" : "way",
      "@validFrom" : "2026-03-01T18:21:38Z",
      "@validTo" : "2026-03-01T18:21:39Z",
      "@version" : 1,
      "bicycle" : "no",
      "footway" : "sidewalk",
      "highway" : "footway",
      "smoothness" : "bad",
      "surface" : "concrete",
      "tactile_paving" : "no"
    }
  }, {
    "type" : "Feature",
    "geometry" : {
      "type" : "LineString",
      "coordinates" : [
        [
          -38.5233082,
          -13.0084746
        ],
        [
          -38.5234968,
          -13.0083259
        ],
        [
          -38.5235038,
          -13.0083209
        ],
        [
          -38.5235045,
          -13.0083151
        ]
      ]
    },
    "properties" : {
      "@changesetId" : 176108563,
      "@osmId" : "way/1459630749",
      "@osmType" : "way",
      "@validFrom" : "2026-03-01T18:21:38Z",
      "@validTo" : "2026-03-01T18:21:39Z",
      "@version" : 1,
      "bicycle" : "no",
      "footway" : "sidewalk",
      "highway" : "footway",
      "smoothness" : "bad",
      "surface" : "concrete",
      "tactile_paving" : "no"
    }
  }, {
    "type" : "Feature",
    "geometry" : {
      "type" : "LineString",
      "coordinates" : [
        [
          -38.5235045,
          -13.0083151
        ],
        [
          -38.5234705,
          -13.0082427
        ],
        [
          -38.5234463,
          -13.0081976
        ],
        [
          -38.5234155,
          -13.008142
        ],
        [
          -38.5233092,
          -13.0079549
        ],
        [
          -38.5232713,
          -13.0078908
        ],
        [
          -38.5232576,
          -13.0078879
        ],
        [
          -38.5232369,
          -13.0078869
        ],
        [
          -38.5232068,
          -13.0078981
        ]
      ]
    },
    "properties" : {
      "@changesetId" : 176108563,
      "@osmId" : "way/1459630750",
      "@osmType" : "way",
      "@validFrom" : "2026-03-01T18:21:38Z",
      "@validTo" : "2026-03-01T18:21:39Z",
      "@version" : 1,
      "bicycle" : "no",
      "footway" : "sidewalk",
      "highway" : "footway",
      "smoothness" : "intermediate",
      "surface" : "concrete",
      "tactile_paving" : "no"
    }
  }, {
    "type" : "Feature",
    "geometry" : {
      "type" : "LineString",
      "coordinates" : [
        [
          -38.5235786,
          -13.0064959
        ],
        [
          -38.5235578,
          -13.0064854
        ],
        [
          -38.5235317,
          -13.0064723
        ],
        [
          -38.5234845,
          -13.0064512
        ],
        [
          -38.5234784,
          -13.006448
        ]
      ]
    },
    "properties" : {
      "@changesetId" : 177081766,
      "@osmId" : "way/1459630753",
      "@osmType" : "way",
      "@validFrom" : "2026-03-01T18:21:38Z",
      "@validTo" : "2026-03-01T18:21:39Z",
      "@version" : 2,
      "crossing" : "marked",
      "crossing:markings" : "zebra",
      "footway" : "crossing",
      "highway" : "footway",
      "kerb" : "yes",
      "surface" : "asphalt",
      "traffic_calming" : "table",
      "wheelchair" : "yes"
    }
  }, {
    "type" : "Feature",
    "geometry" : {
      "type" : "LineString",
      "coordinates" : [
        [
          -38.5236384,
          -13.0062763
        ],
        [
          -38.5236341,
          -13.0062615
        ],
        [
          -38.5236227,
          -13.0062537
        ],
        [
          -38.5236119,
          -13.0062432
        ],
        [
          -38.5236146,
          -13.0059512
        ],
        [
          -38.5236166,
          -13.0059159
        ],
        [
          -38.5236113,
          -13.0058678
        ],
        [
          -38.5236193,
          -13.0058463
        ],
        [
          -38.5236591,
          -13.0057954
        ],
        [
          -38.5237033,
          -13.0057885
        ],
        [
          -38.5237246,
          -13.0057859
        ],
        [
          -38.5237246,
          -13.0057454
        ],
        [
          -38.5237242,
          -13.0057382
        ],
        [
          -38.5237228,
          -13.0057075
        ],
        [
          -38.5237228,
          -13.0056911
        ],
        [
          -38.5236909,
          -13.0056842
        ],
        [
          -38.5236405,
          -13.0056592
        ],
        [
          -38.5236157,
          -13.0056394
        ],
        [
          -38.5235919,
          -13.0055928
        ],
        [
          -38.5235936,
          -13.005554
        ],
        [
          -38.5235998,
          -13.0055066
        ],
        [
          -38.5236157,
          -13.0053945
        ],
        [
          -38.5236237,
          -13.0053609
        ],
        [
          -38.5236396,
          -13.0053462
        ],
        [
          -38.5236671,
          -13.0053471
        ],
        [
          -38.5238305,
          -13.0053738
        ],
        [
          -38.5241982,
          -13.005435
        ],
        [
          -38.5242271,
          -13.0054399
        ],
        [
          -38.5246272,
          -13.0055073
        ],
        [
          -38.5250006,
          -13.0055706
        ],
        [
          -38.5250123,
          -13.0055739
        ],
        [
          -38.5250186,
          -13.0055811
        ],
        [
          -38.5250189,
          -13.0055912
        ],
        [
          -38.5250184,
          -13.0056105
        ],
        [
          -38.5250081,
          -13.005664
        ],
        [
          -38.5249984,
          -13.0056803
        ],
        [
          -38.5249802,
          -13.0056842
        ],
        [
          -38.5249656,
          -13.005689
        ],
        [
          -38.5249603,
          -13.0057049
        ],
        [
          -38.5249435,
          -13.0058183
        ],
        [
          -38.5249196,
          -13.005948
        ],
        [
          -38.52489,
          -13.0061329
        ],
        [
          -38.5246761,
          -13.0061007
        ]
      ]
    },
    "properties" : {
      "@changesetId" : 176110308,
      "@osmId" : "way/1459640304",
      "@osmType" : "way",
      "@validFrom" : "2026-03-01T18:21:38Z",
      "@validTo" : "2026-03-01T18:21:39Z",
      "@version" : 1,
      "bicycle" : "no",
      "footway" : "sidewalk",
      "highway" : "footway",
      "layer" : "-1",
      "smoothness" : "good",
      "surface" : "concrete",
      "tactile_paving" : "yes"
    }
  }, {
    "type" : "Feature",
    "geometry" : {
      "type" : "LineString",
      "coordinates" : [
        [
          -38.523844,
          -13.0052526
        ],
        [
          -38.5238034,
          -13.0052475
        ],
        [
          -38.5237865,
          -13.0052634
        ],
        [
          -38.5236773,
          -13.0052492
        ],
        [
          -38.5236546,
          -13.0052395
        ],
        [
          -38.5236347,
          -13.0052264
        ],
        [
          -38.5236266,
          -13.0052088
        ],
        [
          -38.5236271,
          -13.0051667
        ],
        [
          -38.5236221,
          -13.0050645
        ],
        [
          -38.5236221,
          -13.0050145
        ],
        [
          -38.5236221,
          -13.004994
        ],
        [
          -38.5236285,
          -13.0048762
        ],
        [
          -38.523639,
          -13.0048762
        ],
        [
          -38.5236378,
          -13.0047983
        ],
        [
          -38.5236402,
          -13.0047426
        ],
        [
          -38.523646,
          -13.0047335
        ],
        [
          -38.5236635,
          -13.0047295
        ],
        [
          -38.5237213,
          -13.0047164
        ],
        [
          -38.5237908,
          -13.0046971
        ],
        [
          -38.5238527,
          -13.0046834
        ],
        [
          -38.523942,
          -13.0046749
        ],
        [
          -38.5240943,
          -13.0046629
        ],
        [
          -38.524186,
          -13.0046556
        ],
        [
          -38.5242065,
          -13.0046557
        ]
      ]
    },
    "properties" : {
      "@changesetId" : 178478992,
      "@osmId" : "way/1459640305",
      "@osmType" : "way",
      "@validFrom" : "2026-03-01T18:21:38Z",
      "@validTo" : "2026-03-01T18:21:39Z",
      "@version" : 2,
      "bicycle" : "no",
      "footway" : "sidewalk",
      "highway" : "footway",
      "layer" : "-1",
      "lit" : "no",
      "smoothness" : "intermediate",
      "surface" : "concrete",
      "tactile_paving" : "no"
    }
  }, {
    "type" : "Feature",
    "geometry" : {
      "type" : "LineString",
      "coordinates" : [
        [
          -38.5239444,
          -13.0052628
        ],
        [
          -38.5239613,
          -13.0052659
        ],
        [
          -38.5239573,
          -13.0052934
        ],
        [
          -38.5242007,
          -13.0053352
        ],
        [
          -38.5242435,
          -13.0053424
        ],
        [
          -38.524428,
          -13.0053737
        ],
        [
          -38.5248223,
          -13.005441
        ],
        [
          -38.5250192,
          -13.0054743
        ],
        [
          -38.5254251,
          -13.0055397
        ],
        [
          -38.525493,
          -13.00555
        ]
      ]
    },
    "properties" : {
      "@changesetId" : 176110308,
      "@osmId" : "way/1459640306",
      "@osmType" : "way",
      "@validFrom" : "2026-03-01T18:21:38Z",
      "@validTo" : "2026-03-01T18:21:39Z",
      "@version" : 1,
      "bicycle" : "no",
      "footway" : "sidewalk",
      "highway" : "footway",
      "smoothness" : "good",
      "surface" : "concrete",
      "tactile_paving" : "yes"
    }
  }, {
    "type" : "Feature",
    "geometry" : {
      "type" : "LineString",
      "coordinates" : [
        [
          -38.5250006,
          -13.0055706
        ],
        [
          -38.5250026,
          -13.005562
        ],
        [
          -38.5250093,
          -13.0055276
        ],
        [
          -38.525018,
          -13.005481
        ],
        [
          -38.5250192,
          -13.0054743
        ]
      ]
    },
    "properties" : {
      "@changesetId" : 176110308,
      "@osmId" : "way/1459640307",
      "@osmType" : "way",
      "@validFrom" : "2026-03-01T18:21:38Z",
      "@validTo" : "2026-03-01T18:21:39Z",
      "@version" : 1,
      "crossing" : "marked",
      "crossing:markings" : "zebra",
      "footway" : "crossing",
      "highway" : "footway",
      "kerb" : "yes",
      "wheelchair" : "no"
    }
  }, {
    "type" : "Feature",
    "geometry" : {
      "type" : "LineString",
      "coordinates" : [
        [
          -38.5242271,
          -13.0054399
        ],
        [
          -38.5242282,
          -13.0054317
        ],
        [
          -38.5242328,
          -13.0053996
        ],
        [
          -38.5242419,
          -13.0053513
        ],
        [
          -38.5242435,
          -13.0053424
        ]
      ]
    },
    "properties" : {
      "@changesetId" : 176110308,
      "@osmId" : "way/1459640308",
      "@osmType" : "way",
      "@validFrom" : "2026-03-01T18:21:38Z",
      "@validTo" : "2026-03-01T18:21:39Z",
      "@version" : 1,
      "crossing" : "marked",
      "crossing:markings" : "zebra",
      "footway" : "crossing",
      "highway" : "footway",
      "kerb" : "yes",
      "wheelchair" : "no"
    }
  }, {
    "type" : "Feature",
    "geometry" : {
      "type" : "LineString",
      "coordinates" : [
        [
          -38.5235338,
          -13.0050232
        ],
        [
          -38.5235442,
          -13.0050222
        ],
        [
          -38.5235727,
          -13.0050183
        ],
        [
          -38.5236163,
          -13.0050145
        ],
        [
          -38.5236221,
          -13.0050145
        ]
      ]
    },
    "properties" : {
      "@changesetId" : 176110308,
      "@osmId" : "way/1459640309",
      "@osmType" : "way",
      "@validFrom" : "2026-03-01T18:21:38Z",
      "@validTo" : "2026-03-01T18:21:39Z",
      "@version" : 1,
      "crossing" : "marked",
      "crossing:markings" : "zebra",
      "footway" : "crossing",
      "highway" : "footway",
      "kerb" : "yes",
      "wheelchair" : "yes"
    }
  }, {
    "type" : "Feature",
    "geometry" : {
      "type" : "LineString",
      "coordinates" : [
        [
          -38.5232604,
          -13.0069306
        ],
        [
          -38.5232672,
          -13.0069297
        ],
        [
          -38.5233048,
          -13.0069224
        ],
        [
          -38.5233463,
          -13.0069172
        ],
        [
          -38.5233527,
          -13.0069155
        ]
      ]
    },
    "properties" : {
      "@changesetId" : 177081766,
      "@osmId" : "way/1459640310",
      "@osmType" : "way",
      "@validFrom" : "2026-03-01T18:21:38Z",
      "@validTo" : "2026-03-01T18:21:39Z",
      "@version" : 2,
      "crossing" : "marked",
      "crossing:markings" : "zebra",
      "footway" : "crossing",
      "highway" : "footway",
      "kerb" : "yes",
      "surface" : "asphalt",
      "wheelchair" : "no"
    }
  }, {
    "type" : "Feature",
    "geometry" : {
      "type" : "LineString",
      "coordinates" : [
        [
          -38.5229649,
          -13.006608
        ],
        [
          -38.5229565,
          -13.0065866
        ],
        [
          -38.5229233,
          -13.0065279
        ],
        [
          -38.522878,
          -13.0064596
        ],
        [
          -38.5228411,
          -13.0064222
        ],
        [
          -38.5227756,
          -13.0063793
        ],
        [
          -38.5226936,
          -13.0063221
        ],
        [
          -38.5226527,
          -13.0062969
        ],
        [
          -38.5225691,
          -13.0062452
        ],
        [
          -38.5223701,
          -13.0061245
        ],
        [
          -38.5222515,
          -13.0060556
        ],
        [
          -38.5221987,
          -13.0060276
        ]
      ]
    },
    "properties" : {
      "@changesetId" : 177080602,
      "@osmId" : "way/1466119802",
      "@osmType" : "way",
      "@validFrom" : "2026-03-01T18:21:38Z",
      "@validTo" : "2026-03-01T18:21:39Z",
      "@version" : 1,
      "bicycle" : "yes",
      "footway" : "sidewalk",
      "highway" : "footway",
      "smoothness" : "good",
      "surface" : "concrete"
    }
  }, {
    "type" : "Feature",
    "geometry" : {
      "type" : "LineString",
      "coordinates" : [
        [
          -38.523171,
          -13.0071084
        ],
        [
          -38.5231592,
          -13.0071102
        ],
        [
          -38.5231198,
          -13.0071164
        ],
        [
          -38.5230754,
          -13.0071235
        ],
        [
          -38.5230654,
          -13.0071251
        ]
      ]
    },
    "properties" : {
      "@changesetId" : 177081766,
      "@osmId" : "way/1466128232",
      "@osmType" : "way",
      "@validFrom" : "2026-03-01T18:21:38Z",
      "@validTo" : "2026-03-01T18:21:39Z",
      "@version" : 1,
      "crossing" : "marked",
      "crossing:markings" : "zebra",
      "footway" : "crossing",
      "highway" : "footway",
      "kerb" : "yes",
      "traffic_calming" : "table",
      "wheelchair" : "no"
    }
  }, {
    "type" : "Feature",
    "geometry" : {
      "type" : "LineString",
      "coordinates" : [
        [
          -38.5221987,
          -13.0060276
        ],
        [
          -38.522173,
          -13.006018
        ],
        [
          -38.5221498,
          -13.0060112
        ],
        [
          -38.5221274,
          -13.0060065
        ],
        [
          -38.5220994,
          -13.0060057
        ],
        [
          -38.5220701,
          -13.0060053
        ],
        [
          -38.522042,
          -13.0060053
        ],
        [
          -38.5218981,
          -13.0060071
        ]
      ]
    },
    "properties" : {
      "@changesetId" : 177081766,
      "@osmId" : "way/1466128233",
      "@osmType" : "way",
      "@validFrom" : "2026-03-01T18:21:38Z",
      "@validTo" : "2026-03-01T18:21:39Z",
      "@version" : 1,
      "bicycle" : "no",
      "footway" : "sidewalk",
      "highway" : "footway",
      "smoothness" : "good",
      "surface" : "concrete"
    }
  }, {
    "type" : "Feature",
    "geometry" : {
      "type" : "LineString",
      "coordinates" : [
        [
          -38.5231004,
          -13.0057909
        ],
        [
          -38.5231051,
          -13.0057697
        ],
        [
          -38.5231085,
          -13.0057536
        ],
        [
          -38.5231117,
          -13.0057348
        ],
        [
          -38.5231139,
          -13.0057207
        ],
        [
          -38.5231182,
          -13.0057045
        ],
        [
          -38.5231271,
          -13.0056674
        ],
        [
          -38.5231332,
          -13.0056082
        ],
        [
          -38.5231416,
          -13.0055072
        ],
        [
          -38.523143,
          -13.0053185
        ],
        [
          -38.5231459,
          -13.0051445
        ],
        [
          -38.523146,
          -13.0051204
        ],
        [
          -38.5231446,
          -13.0050988
        ],
        [
          -38.523143,
          -13.0050849
        ],
        [
          -38.5231423,
          -13.0050752
        ],
        [
          -38.5231411,
          -13.0050664
        ],
        [
          -38.5231363,
          -13.0050646
        ],
        [
          -38.5231267,
          -13.0050738
        ],
        [
          -38.5231119,
          -13.0050888
        ],
        [
          -38.5230899,
          -13.005111
        ],
        [
          -38.5230706,
          -13.0051276
        ],
        [
          -38.5230492,
          -13.0051486
        ],
        [
          -38.5230286,
          -13.0051679
        ],
        [
          -38.5230063,
          -13.0051909
        ],
        [
          -38.5229932,
          -13.0052043
        ]
      ]
    },
    "properties" : {
      "@changesetId" : 177081766,
      "@osmId" : "way/1466128234",
      "@osmType" : "way",
      "@validFrom" : "2026-03-01T18:21:38Z",
      "@validTo" : "2026-03-01T18:21:39Z",
      "@version" : 1,
      "bicycle" : "no",
      "footway" : "sidewalk",
      "highway" : "footway",
      "smoothness" : "good",
      "surface" : "concrete"
    }
  }, {
    "type" : "Feature",
    "geometry" : {
      "type" : "LineString",
      "coordinates" : [
        [
          -38.5229932,
          -13.0052043
        ],
        [
          -38.5229794,
          -13.0052201
        ],
        [
          -38.5229615,
          -13.0052422
        ]
      ]
    },
    "properties" : {
      "@changesetId" : 177081766,
      "@osmId" : "way/1466128235",
      "@osmType" : "way",
      "@validFrom" : "2026-03-01T18:21:38Z",
      "@validTo" : "2026-03-01T18:21:39Z",
      "@version" : 1,
      "crossing" : "marked",
      "crossing:markings" : "zebra",
      "footway" : "crossing",
      "highway" : "footway",
      "kerb" : "yes",
      "wheelchair" : "no"
    }
  }, {
    "type" : "Feature",
    "geometry" : {
      "type" : "LineString",
      "coordinates" : [
        [
          -38.5231004,
          -13.0057909
        ],
        [
          -38.5230686,
          -13.0056727
        ],
        [
          -38.5230312,
          -13.0055412
        ],
        [
          -38.5230256,
          -13.0054511
        ],
        [
          -38.5230206,
          -13.0053623
        ],
        [
          -38.5230202,
          -13.0053511
        ],
        [
          -38.5230176,
          -13.0053328
        ],
        [
          -38.5230122,
          -13.0053237
        ],
        [
          -38.5230051,
          -13.0053136
        ],
        [
          -38.5229896,
          -13.0052996
        ],
        [
          -38.5229749,
          -13.0052931
        ],
        [
          -38.5229641,
          -13.0052878
        ],
        [
          -38.5229548,
          -13.005285
        ],
        [
          -38.5229438,
          -13.0052815
        ],
        [
          -38.5229325,
          -13.0052801
        ],
        [
          -38.5229226,
          -13.0052845
        ]
      ]
    },
    "properties" : {
      "@changesetId" : 177081766,
      "@osmId" : "way/1466128236",
      "@osmType" : "way",
      "@validFrom" : "2026-03-01T18:21:38Z",
      "@validTo" : "2026-03-01T18:21:39Z",
      "@version" : 1,
      "bicycle" : "no",
      "footway" : "sidewalk",
      "highway" : "footway",
      "layer" : "1",
      "smoothness" : "bad",
      "surface" : "concrete",
      "tactile_paving" : "no"
    }
  }, {
    "type" : "Feature",
    "geometry" : {
      "type" : "LineString",
      "coordinates" : [
        [
          -38.5229615,
          -13.0052422
        ],
        [
          -38.5229226,
          -13.0052845
        ],
        [
          -38.5228805,
          -13.0053228
        ],
        [
          -38.5227796,
          -13.0054327
        ],
        [
          -38.5226991,
          -13.0055263
        ],
        [
          -38.5226707,
          -13.0055305
        ],
        [
          -38.5225541,
          -13.005668
        ]
      ]
    },
    "properties" : {
      "@changesetId" : 177081766,
      "@osmId" : "way/1466128237",
      "@osmType" : "way",
      "@validFrom" : "2026-03-01T18:21:38Z",
      "@validTo" : "2026-03-01T18:21:39Z",
      "@version" : 1,
      "bicycle" : "no",
      "footway" : "sidewalk",
      "highway" : "footway",
      "smoothness" : "good",
      "surface" : "concrete",
      "tactile_paving" : "no"
    }
  }, {
    "type" : "Feature",
    "geometry" : {
      "type" : "LineString",
      "coordinates" : [
        [
          -38.5225689,
          -13.0061124
        ],
        [
          -38.5226254,
          -13.006146
        ]
      ]
    },
    "properties" : {
      "@changesetId" : 177081766,
      "@osmId" : "way/1466128241",
      "@osmType" : "way",
      "@validFrom" : "2026-03-01T18:21:38Z",
      "@validTo" : "2026-03-01T18:21:39Z",
      "@version" : 1,
      "bicycle" : "no",
      "footway" : "sidewalk",
      "highway" : "footway",
      "smoothness" : "good",
      "surface" : "paving_stones"
    }
  }, {
    "type" : "Feature",
    "geometry" : {
      "type" : "LineString",
      "coordinates" : [
        [
          -38.5232068,
          -13.0078981
        ],
        [
          -38.5231785,
          -13.0079089
        ],
        [
          -38.5231475,
          -13.0079197
        ],
        [
          -38.5231413,
          -13.0079085
        ],
        [
          -38.5230692,
          -13.0079443
        ],
        [
          -38.5230489,
          -13.0079564
        ]
      ]
    },
    "properties" : {
      "@changesetId" : 177080602,
      "@osmId" : "way/1459630751",
      "@osmType" : "way",
      "@validFrom" : "2026-03-01T18:21:38Z",
      "@validTo" : "2026-03-01T18:21:39Z",
      "@version" : 2,
      "bicycle" : "no",
      "footway" : "sidewalk",
      "highway" : "footway",
      "smoothness" : "bad",
      "surface" : "concreto"
    }
  }, {
    "type" : "Feature",
    "geometry" : {
      "type" : "LineString",
      "coordinates" : [
        [
          -38.5241263,
          -13.0082969
        ],
        [
          -38.5241053,
          -13.0082968
        ],
        [
          -38.5240737,
          -13.00829
        ],
        [
          -38.5240358,
          -13.0082758
        ],
        [
          -38.5239955,
          -13.0082564
        ],
        [
          -38.5239456,
          -13.0082205
        ],
        [
          -38.5238919,
          -13.0081725
        ],
        [
          -38.523839,
          -13.0081182
        ],
        [
          -38.5237478,
          -13.0079965
        ],
        [
          -38.5237262,
          -13.0079652
        ],
        [
          -38.5237008,
          -13.0079243
        ],
        [
          -38.5236891,
          -13.0079058
        ],
        [
          -38.5236364,
          -13.007809
        ],
        [
          -38.5235803,
          -13.0076969
        ],
        [
          -38.5235533,
          -13.0076387
        ],
        [
          -38.5235258,
          -13.0075736
        ],
        [
          -38.523502,
          -13.0074917
        ],
        [
          -38.5234387,
          -13.0071982
        ],
        [
          -38.5234214,
          -13.0071002
        ],
        [
          -38.523387,
          -13.0068744
        ],
        [
          -38.5233852,
          -13.0067965
        ],
        [
          -38.5233858,
          -13.0067038
        ],
        [
          -38.5233905,
          -13.0066509
        ],
        [
          -38.5234036,
          -13.0066079
        ]
      ]
    },
    "properties" : {
      "@changesetId" : 176110308,
      "@osmId" : "way/1459640303",
      "@osmType" : "way",
      "@validFrom" : "2026-03-01T18:21:38Z",
      "@validTo" : "2026-03-01T18:21:39Z",
      "@version" : 1,
      "bicycle" : "no",
      "footway" : "sidewalk",
      "highway" : "footway",
      "smoothness" : "bad",
      "surface" : "concrete",
      "tactile_paving" : "no"
    }
  }, {
    "type" : "Feature",
    "geometry" : {
      "type" : "LineString",
      "coordinates" : [
        [
          -38.5230313,
          -13.0079213
        ],
        [
          -38.5230763,
          -13.0079079
        ],
        [
          -38.5231425,
          -13.0078746
        ],
        [
          -38.5231925,
          -13.0078516
        ],
        [
          -38.5232149,
          -13.0078359
        ],
        [
          -38.5232245,
          -13.0078243
        ],
        [
          -38.5232285,
          -13.0078138
        ],
        [
          -38.5232287,
          -13.0078047
        ],
        [
          -38.5232233,
          -13.0077845
        ],
        [
          -38.523186,
          -13.0076807
        ],
        [
          -38.5231757,
          -13.0076521
        ],
        [
          -38.5231508,
          -13.0075736
        ],
        [
          -38.5231233,
          -13.0074569
        ],
        [
          -38.5230997,
          -13.0073159
        ],
        [
          -38.5230654,
          -13.0071251
        ],
        [
          -38.5230233,
          -13.0068967
        ],
        [
          -38.5229856,
          -13.0066996
        ],
        [
          -38.5229649,
          -13.006608
        ]
      ]
    },
    "properties" : {
      "@changesetId" : 177080602,
      "@osmId" : "way/1466119801",
      "@osmType" : "way",
      "@validFrom" : "2026-03-01T18:21:38Z",
      "@validTo" : "2026-03-01T18:21:39Z",
      "@version" : 1,
      "bicycle" : "no",
      "footway" : "sidewalk",
      "highway" : "footway",
      "layer" : "1",
      "smoothness" : "good",
      "surface" : "concrete"
    }
  }, {
    "type" : "Feature",
    "geometry" : {
      "type" : "LineString",
      "coordinates" : [
        [
          -38.5240787,
          -13.008452
        ],
        [
          -38.523911,
          -13.0083599
        ],
        [
          -38.5238715,
          -13.0084141
        ],
        [
          -38.5238332,
          -13.0084474
        ],
        [
          -38.5238326,
          -13.0084827
        ],
        [
          -38.5238661,
          -13.0085023
        ],
        [
          -38.5241296,
          -13.0084755
        ],
        [
          -38.5240787,
          -13.008452
        ]
      ]
    },
    "properties" : {
      "@changesetId" : 177445748,
      "@osmId" : "way/1468558426",
      "@osmType" : "way",
      "@validFrom" : "2026-03-01T18:21:38Z",
      "@validTo" : "2026-03-01T18:21:39Z",
      "@version" : 1,
      "bicycle" : "no",
      "footway" : "sidewalk",
      "highway" : "footway",
      "smoothness" : "good",
      "surface" : "concrete",
      "tactile_paving" : "no"
    }
  }, {
    "type" : "Feature",
    "geometry" : {
      "type" : "Point",
      "coordinates" : [
        -38.5218926,
        -13.0025878
      ]
    },
    "properties" : {
      "@changesetId" : 175849523,
      "@osmId" : "node/347634148",
      "@osmType" : "node",
      "@validFrom" : "2026-03-01T18:21:38Z",
      "@validTo" : "2026-03-01T18:21:39Z",
      "@version" : 16,
      "crossing" : "uncontrolled",
      "highway" : "crossing"
    }
  }, {
    "type" : "Feature",
    "geometry" : {
      "type" : "Point",
      "coordinates" : [
        -38.5223718,
        -13.0038709
      ]
    },
    "properties" : {
      "@changesetId" : 141705993,
      "@osmId" : "node/1492981519",
      "@osmType" : "node",
      "@validFrom" : "2026-03-01T18:21:38Z",
      "@validTo" : "2026-03-01T18:21:39Z",
      "@version" : 9,
      "crossing" : "traffic_signals",
      "highway" : "crossing"
    }
  }, {
    "type" : "Feature",
    "geometry" : {
      "type" : "Point",
      "coordinates" : [
        -38.524298,
        -13.0084988
      ]
    },
    "properties" : {
      "@changesetId" : 176107808,
      "@osmId" : "node/1825714393",
      "@osmType" : "node",
      "@validFrom" : "2026-03-01T18:21:38Z",
      "@validTo" : "2026-03-01T18:21:39Z",
      "@version" : 7,
      "crossing" : "traffic_signals",
      "highway" : "crossing",
      "source" : "Bing"
    }
  }, {
    "type" : "Feature",
    "geometry" : {
      "type" : "Point",
      "coordinates" : [
        -38.5245476,
        -13.009621
      ]
    },
    "properties" : {
      "@changesetId" : 176097891,
      "@osmId" : "node/1825714411",
      "@osmType" : "node",
      "@validFrom" : "2026-03-01T18:21:38Z",
      "@validTo" : "2026-03-01T18:21:39Z",
      "@version" : 13,
      "button_operated" : "no",
      "crossing" : "traffic_signals",
      "crossing:island" : "no",
      "crossing_ref" : "zebra",
      "highway" : "crossing",
      "traffic_signals:sound" : "no",
      "traffic_signals:vibration" : "no"
    }
  }, {
    "type" : "Feature",
    "geometry" : {
      "type" : "Point",
      "coordinates" : [
        -38.5235727,
        -13.0050183
      ]
    },
    "properties" : {
      "@changesetId" : 178962508,
      "@osmId" : "node/4083503244",
      "@osmType" : "node",
      "@validFrom" : "2026-03-01T18:21:38Z",
      "@validTo" : "2026-03-01T18:21:39Z",
      "@version" : 8,
      "crossing" : "uncontrolled",
      "crossing:markings" : "no",
      "highway" : "crossing"
    }
  }, {
    "type" : "Feature",
    "geometry" : {
      "type" : "Point",
      "coordinates" : [
        -38.5253938,
        -13.0091963
      ]
    },
    "properties" : {
      "@changesetId" : 150662525,
      "@osmId" : "node/6616051037",
      "@osmType" : "node",
      "@validFrom" : "2026-03-01T18:21:38Z",
      "@validTo" : "2026-03-01T18:21:39Z",
      "@version" : 2,
      "crossing" : "marked",
      "crossing:markings" : "yes",
      "highway" : "crossing"
    }
  }, {
    "type" : "Feature",
    "geometry" : {
      "type" : "Point",
      "coordinates" : [
        -38.5249002,
        -13.0093565
      ]
    },
    "properties" : {
      "@changesetId" : 150662525,
      "@osmId" : "node/6616051038",
      "@osmType" : "node",
      "@validFrom" : "2026-03-01T18:21:38Z",
      "@validTo" : "2026-03-01T18:21:39Z",
      "@version" : 2,
      "crossing" : "marked",
      "crossing:markings" : "yes",
      "highway" : "crossing"
    }
  }, {
    "type" : "Feature",
    "geometry" : {
      "type" : "Point",
      "coordinates" : [
        -38.5235088,
        -13.0069898
      ]
    },
    "properties" : {
      "@changesetId" : 179221235,
      "@osmId" : "node/7260340132",
      "@osmType" : "node",
      "@validFrom" : "2026-03-01T18:21:38Z",
      "@validTo" : "2026-03-01T18:21:39Z",
      "@version" : 5,
      "crossing" : "uncontrolled",
      "crossing:markings" : "zebra",
      "highway" : "crossing"
    }
  }, {
    "type" : "Feature",
    "geometry" : {
      "type" : "Point",
      "coordinates" : [
        -38.5215197,
        -13.0028663
      ]
    },
    "properties" : {
      "@changesetId" : 141705993,
      "@osmId" : "node/7546588589",
      "@osmType" : "node",
      "@validFrom" : "2026-03-01T18:21:38Z",
      "@validTo" : "2026-03-01T18:21:39Z",
      "@version" : 3,
      "crossing" : "traffic_signals",
      "highway" : "crossing"
    }
  }, {
    "type" : "Feature",
    "geometry" : {
      "type" : "Point",
      "coordinates" : [
        -38.5235786,
        -13.0064959
      ]
    },
    "properties" : {
      "@changesetId" : 176108563,
      "@osmId" : "node/13313710169",
      "@osmType" : "node",
      "@validFrom" : "2026-03-01T18:21:38Z",
      "@validTo" : "2026-03-01T18:21:39Z",
      "@version" : 2,
      "barrier" : "kerb",
      "kerb" : "flush"
    }
  }, {
    "type" : "Feature",
    "geometry" : {
      "type" : "Point",
      "coordinates" : [
        -38.523553,
        -13.0077287
      ]
    },
    "properties" : {
      "@changesetId" : 174818771,
      "@osmId" : "node/13313734710",
      "@osmType" : "node",
      "@validFrom" : "2026-03-01T18:21:38Z",
      "@validTo" : "2026-03-01T18:21:39Z",
      "@version" : 1,
      "barrier" : "kerb",
      "kerb" : "lowered",
      "wheelchair" : "limited"
    }
  }, {
    "type" : "Feature",
    "geometry" : {
      "type" : "Point",
      "coordinates" : [
        -38.5235317,
        -13.0064723
      ]
    },
    "properties" : {
      "@changesetId" : 179221235,
      "@osmId" : "node/13313734727",
      "@osmType" : "node",
      "@validFrom" : "2026-03-01T18:21:38Z",
      "@validTo" : "2026-03-01T18:21:39Z",
      "@version" : 5,
      "crossing" : "uncontrolled",
      "crossing:markings" : "zebra",
      "highway" : "crossing"
    }
  }, {
    "type" : "Feature",
    "geometry" : {
      "type" : "Point",
      "coordinates" : [
        -38.5244871,
        -13.0083823
      ]
    },
    "properties" : {
      "@changesetId" : 175082411,
      "@osmId" : "node/13328865751",
      "@osmType" : "node",
      "@validFrom" : "2026-03-01T18:21:38Z",
      "@validTo" : "2026-03-01T18:21:39Z",
      "@version" : 1,
      "barrier" : "kerb",
      "kerb" : "lowered",
      "tactile_paving" : "yes"
    }
  }, {
    "type" : "Feature",
    "geometry" : {
      "type" : "Point",
      "coordinates" : [
        -38.5244476,
        -13.007944
      ]
    },
    "properties" : {
      "@changesetId" : 176097108,
      "@osmId" : "node/13328865755",
      "@osmType" : "node",
      "@validFrom" : "2026-03-01T18:21:38Z",
      "@validTo" : "2026-03-01T18:21:39Z",
      "@version" : 3,
      "barrier" : "kerb",
      "kerb" : "flush",
      "smoothness" : "excellent",
      "surface" : "concre",
      "tactile_paving" : "no",
      "wheelchair" : "yes"
    }
  }, {
    "type" : "Feature",
    "geometry" : {
      "type" : "Point",
      "coordinates" : [
        -38.5244977,
        -13.0078865
      ]
    },
    "properties" : {
      "@changesetId" : 178956480,
      "@osmId" : "node/13328865757",
      "@osmType" : "node",
      "@validFrom" : "2026-03-01T18:21:38Z",
      "@validTo" : "2026-03-01T18:21:39Z",
      "@version" : 4,
      "crossing" : "zebra",
      "crossing:island" : "no",
      "crossing:markings" : "zebra",
      "footway" : "crossing",
      "highway" : "crossing"
    }
  }, {
    "type" : "Feature",
    "geometry" : {
      "type" : "Point",
      "coordinates" : [
        -38.5244137,
        -13.0081663
      ]
    },
    "properties" : {
      "@changesetId" : 175113078,
      "@osmId" : "node/13328865759",
      "@osmType" : "node",
      "@validFrom" : "2026-03-01T18:21:38Z",
      "@validTo" : "2026-03-01T18:21:39Z",
      "@version" : 2,
      "crossing" : "uncontrolled",
      "crossing:markings" : "zebra",
      "footway" : "crossing",
      "highway" : "crossing"
    }
  }, {
    "type" : "Feature",
    "geometry" : {
      "type" : "Point",
      "coordinates" : [
        -38.5243568,
        -13.0081668
      ]
    },
    "properties" : {
      "@changesetId" : 175113078,
      "@osmId" : "node/13328865760",
      "@osmType" : "node",
      "@validFrom" : "2026-03-01T18:21:38Z",
      "@validTo" : "2026-03-01T18:21:39Z",
      "@version" : 3,
      "crossing" : "uncontrolled",
      "crossing:markings" : "zebra",
      "footway" : "crossing",
      "highway" : "crossing"
    }
  }, {
    "type" : "Feature",
    "geometry" : {
      "type" : "Point",
      "coordinates" : [
        -38.5244383,
        -13.0084734
      ]
    },
    "properties" : {
      "@changesetId" : 175984775,
      "@osmId" : "node/13330390485",
      "@osmType" : "node",
      "@validFrom" : "2026-03-01T18:21:38Z",
      "@validTo" : "2026-03-01T18:21:39Z",
      "@version" : 3,
      "crossing" : "marked",
      "crossing:markings" : "zebra",
      "footway" : "crossing",
      "highway" : "crossing"
    }
  }, {
    "type" : "Feature",
    "geometry" : {
      "type" : "Point",
      "coordinates" : [
        -38.5244179,
        -13.0084267
      ]
    },
    "properties" : {
      "@changesetId" : 175113078,
      "@osmId" : "node/13330390486",
      "@osmType" : "node",
      "@validFrom" : "2026-03-01T18:21:38Z",
      "@validTo" : "2026-03-01T18:21:39Z",
      "@version" : 2,
      "barrier" : "kerb",
      "kerb" : "raised",
      "smoothness" : "excellent",
      "surface" : "concrete",
      "tactile_paving" : "no",
      "wheelchair" : "no"
    }
  }, {
    "type" : "Feature",
    "geometry" : {
      "type" : "Point",
      "coordinates" : [
        -38.5243851,
        -13.0081665
      ]
    },
    "properties" : {
      "@changesetId" : 175112699,
      "@osmId" : "node/13330390489",
      "@osmType" : "node",
      "@validFrom" : "2026-03-01T18:21:38Z",
      "@validTo" : "2026-03-01T18:21:39Z",
      "@version" : 1,
      "crossing" : "marked",
      "crossing:markings" : "zebra",
      "highway" : "crossing"
    }
  }, {
    "type" : "Feature",
    "geometry" : {
      "type" : "Point",
      "coordinates" : [
        -38.5244348,
        -13.0081649
      ]
    },
    "properties" : {
      "@changesetId" : 175112699,
      "@osmId" : "node/13330390492",
      "@osmType" : "node",
      "@validFrom" : "2026-03-01T18:21:38Z",
      "@validTo" : "2026-03-01T18:21:39Z",
      "@version" : 1,
      "barrier" : "kerb",
      "kerb" : "raised",
      "smoothness" : "excellent",
      "surface" : "paving_stones",
      "tactile_paving" : "no",
      "wheelchair" : "no"
    }
  }, {
    "type" : "Feature",
    "geometry" : {
      "type" : "Point",
      "coordinates" : [
        -38.5243916,
        -13.0081669
      ]
    },
    "properties" : {
      "@changesetId" : 175112699,
      "@osmId" : "node/13330390493",
      "@osmType" : "node",
      "@validFrom" : "2026-03-01T18:21:38Z",
      "@validTo" : "2026-03-01T18:21:39Z",
      "@version" : 1,
      "barrier" : "kerb",
      "kerb" : "raised",
      "smoothness" : "excellent",
      "surface" : "paving_stones",
      "tactile_paving" : "no",
      "wheelchair" : "no"
    }
  }, {
    "type" : "Feature",
    "geometry" : {
      "type" : "Point",
      "coordinates" : [
        -38.5243792,
        -13.0081667
      ]
    },
    "properties" : {
      "@changesetId" : 175112699,
      "@osmId" : "node/13330390494",
      "@osmType" : "node",
      "@validFrom" : "2026-03-01T18:21:38Z",
      "@validTo" : "2026-03-01T18:21:39Z",
      "@version" : 1,
      "barrier" : "kerb",
      "kerb" : "raised",
      "smoothness" : "excellent",
      "surface" : "paving_stones",
      "tactile_paving" : "no",
      "wheelchair" : "no"
    }
  }, {
    "type" : "Feature",
    "geometry" : {
      "type" : "Point",
      "coordinates" : [
        -38.5243297,
        -13.008167
      ]
    },
    "properties" : {
      "@changesetId" : 175112699,
      "@osmId" : "node/13330390495",
      "@osmType" : "node",
      "@validFrom" : "2026-03-01T18:21:38Z",
      "@validTo" : "2026-03-01T18:21:39Z",
      "@version" : 1,
      "barrier" : "kerb",
      "kerb" : "raised",
      "smoothness" : "excellent",
      "surface" : "paving_stones",
      "tactile_paving" : "no",
      "wheelchair" : "no"
    }
  }, {
    "type" : "Feature",
    "geometry" : {
      "type" : "Point",
      "coordinates" : [
        -38.5244472,
        -13.0085322
      ]
    },
    "properties" : {
      "@changesetId" : 176107808,
      "@osmId" : "node/13330407752",
      "@osmType" : "node",
      "@validFrom" : "2026-03-01T18:21:38Z",
      "@validTo" : "2026-03-01T18:21:39Z",
      "@version" : 2,
      "barrier" : "kerb",
      "kerb" : "raised",
      "smoothness" : "good",
      "surface" : "paving_stones",
      "tactile_paving" : "no",
      "wheelchair" : "no"
    }
  }, {
    "type" : "Feature",
    "geometry" : {
      "type" : "Point",
      "coordinates" : [
        -38.5243904,
        -13.0074014
      ]
    },
    "properties" : {
      "@changesetId" : 175116033,
      "@osmId" : "node/13330610449",
      "@osmType" : "node",
      "@validFrom" : "2026-03-01T18:21:38Z",
      "@validTo" : "2026-03-01T18:21:39Z",
      "@version" : 1,
      "barrier" : "kerb",
      "kerb" : "raised",
      "smoothness" : "excellent",
      "surface" : "concrete",
      "tactile_paving" : "no",
      "wheelchair" : "no"
    }
  }, {
    "type" : "Feature",
    "geometry" : {
      "type" : "Point",
      "coordinates" : [
        -38.5243606,
        -13.0074012
      ]
    },
    "properties" : {
      "@changesetId" : 175116033,
      "@osmId" : "node/13330610450",
      "@osmType" : "node",
      "@validFrom" : "2026-03-01T18:21:38Z",
      "@validTo" : "2026-03-01T18:21:39Z",
      "@version" : 1,
      "crossing" : "marked",
      "crossing:markings" : "zebra",
      "highway" : "crossing"
    }
  }, {
    "type" : "Feature",
    "geometry" : {
      "type" : "Point",
      "coordinates" : [
        -38.5243252,
        -13.007401
      ]
    },
    "properties" : {
      "@changesetId" : 175116033,
      "@osmId" : "node/13330610451",
      "@osmType" : "node",
      "@validFrom" : "2026-03-01T18:21:38Z",
      "@validTo" : "2026-03-01T18:21:39Z",
      "@version" : 1,
      "barrier" : "kerb",
      "kerb" : "raised",
      "smoothness" : "excellent",
      "surface" : "concrete",
      "tactile_paving" : "no",
      "wheelchair" : "no"
    }
  }, {
    "type" : "Feature",
    "geometry" : {
      "type" : "Point",
      "coordinates" : [
        -38.5227583,
        -13.0035199
      ]
    },
    "properties" : {
      "@changesetId" : 175848484,
      "@osmId" : "node/13371909000",
      "@osmType" : "node",
      "@validFrom" : "2026-03-01T18:21:38Z",
      "@validTo" : "2026-03-01T18:21:39Z",
      "@version" : 2,
      "barrier" : "kerb",
      "kerb" : "lowered",
      "tactile_paving" : "no",
      "wheelchair" : "yes"
    }
  }, {
    "type" : "Feature",
    "geometry" : {
      "type" : "Point",
      "coordinates" : [
        -38.5227232,
        -13.0035514
      ]
    },
    "properties" : {
      "@changesetId" : 175848250,
      "@osmId" : "node/13371915556",
      "@osmType" : "node",
      "@validFrom" : "2026-03-01T18:21:38Z",
      "@validTo" : "2026-03-01T18:21:39Z",
      "@version" : 2,
      "crossing" : "uncontrolled",
      "crossing:markings" : "zebra",
      "footway" : "crossing",
      "highway" : "crossing"
    }
  }, {
    "type" : "Feature",
    "geometry" : {
      "type" : "Point",
      "coordinates" : [
        -38.522691,
        -13.0035806
      ]
    },
    "properties" : {
      "@changesetId" : 175848612,
      "@osmId" : "node/13372021001",
      "@osmType" : "node",
      "@validFrom" : "2026-03-01T18:21:38Z",
      "@validTo" : "2026-03-01T18:21:39Z",
      "@version" : 2,
      "barrier" : "kerb",
      "kerb" : "lowered",
      "tactile_paving" : "no",
      "wheelchair" : "yes"
    }
  }, {
    "type" : "Feature",
    "geometry" : {
      "type" : "Point",
      "coordinates" : [
        -38.5250093,
        -13.0055276
      ]
    },
    "properties" : {
      "@changesetId" : 176110308,
      "@osmId" : "node/13380028855",
      "@osmType" : "node",
      "@validFrom" : "2026-03-01T18:21:38Z",
      "@validTo" : "2026-03-01T18:21:39Z",
      "@version" : 2,
      "crossing" : "uncontrolled",
      "crossing:markings" : "yes",
      "highway" : "crossing"
    }
  }, {
    "type" : "Feature",
    "geometry" : {
      "type" : "Point",
      "coordinates" : [
        -38.5244947,
        -13.0078191
      ]
    },
    "properties" : {
      "@changesetId" : 176097074,
      "@osmId" : "node/13386540230",
      "@osmType" : "node",
      "@validFrom" : "2026-03-01T18:21:38Z",
      "@validTo" : "2026-03-01T18:21:39Z",
      "@version" : 2,
      "barrier" : "kerb",
      "kerb" : "flush",
      "smoothness" : "excellent",
      "surface" : "concrete",
      "tactile_paving" : "no",
      "wheelchair" : "yes"
    }
  }, {
    "type" : "Feature",
    "geometry" : {
      "type" : "Point",
      "coordinates" : [
        -38.5243926,
        -13.0095744
      ]
    },
    "properties" : {
      "@changesetId" : 176108563,
      "@osmId" : "node/13386582734",
      "@osmType" : "node",
      "@validFrom" : "2026-03-01T18:21:38Z",
      "@validTo" : "2026-03-01T18:21:39Z",
      "@version" : 2,
      "barrier" : "kerb",
      "kerb" : "raised"
    }
  }, {
    "type" : "Feature",
    "geometry" : {
      "type" : "Point",
      "coordinates" : [
        -38.5242836,
        -13.0096312
      ]
    },
    "properties" : {
      "@changesetId" : 176108563,
      "@osmId" : "node/13386582735",
      "@osmType" : "node",
      "@validFrom" : "2026-03-01T18:21:38Z",
      "@validTo" : "2026-03-01T18:21:39Z",
      "@version" : 2,
      "barrier" : "kerb",
      "kerb" : "raised"
    }
  }, {
    "type" : "Feature",
    "geometry" : {
      "type" : "Point",
      "coordinates" : [
        -38.5243376,
        -13.009603
      ]
    },
    "properties" : {
      "@changesetId" : 176097891,
      "@osmId" : "node/13386582741",
      "@osmType" : "node",
      "@validFrom" : "2026-03-01T18:21:38Z",
      "@validTo" : "2026-03-01T18:21:39Z",
      "@version" : 1,
      "crossing" : "uncontrolled",
      "crossing:markings" : "yes",
      "highway" : "crossing"
    }
  }, {
    "type" : "Feature",
    "geometry" : {
      "type" : "Point",
      "coordinates" : [
        -38.5245238,
        -13.0095722
      ]
    },
    "properties" : {
      "@changesetId" : 176108641,
      "@osmId" : "node/13387106469",
      "@osmType" : "node",
      "@validFrom" : "2026-03-01T18:21:38Z",
      "@validTo" : "2026-03-01T18:21:39Z",
      "@version" : 3,
      "barrier" : "kerb",
      "kerb" : "lowered"
    }
  }, {
    "type" : "Feature",
    "geometry" : {
      "type" : "Point",
      "coordinates" : [
        -38.5245689,
        -13.0096664
      ]
    },
    "properties" : {
      "@changesetId" : 176108563,
      "@osmId" : "node/13387106470",
      "@osmType" : "node",
      "@validFrom" : "2026-03-01T18:21:38Z",
      "@validTo" : "2026-03-01T18:21:39Z",
      "@version" : 1,
      "barrier" : "kerb",
      "kerb" : "lowered"
    }
  }, {
    "type" : "Feature",
    "geometry" : {
      "type" : "Point",
      "coordinates" : [
        -38.5235249,
        -13.0069638
      ]
    },
    "properties" : {
      "@changesetId" : 176108563,
      "@osmId" : "node/13387148875",
      "@osmType" : "node",
      "@validFrom" : "2026-03-01T18:21:38Z",
      "@validTo" : "2026-03-01T18:21:39Z",
      "@version" : 1,
      "barrier" : "kerb",
      "kerb" : "raised"
    }
  }, {
    "type" : "Feature",
    "geometry" : {
      "type" : "Point",
      "coordinates" : [
        -38.5234964,
        -13.0070392
      ]
    },
    "properties" : {
      "@changesetId" : 176108563,
      "@osmId" : "node/13387148876",
      "@osmType" : "node",
      "@validFrom" : "2026-03-01T18:21:38Z",
      "@validTo" : "2026-03-01T18:21:39Z",
      "@version" : 1,
      "barrier" : "kerb",
      "kerb" : "raised"
    }
  }, {
    "type" : "Feature",
    "geometry" : {
      "type" : "Point",
      "coordinates" : [
        -38.5234845,
        -13.0064512
      ]
    },
    "properties" : {
      "@changesetId" : 176108563,
      "@osmId" : "node/13387148878",
      "@osmType" : "node",
      "@validFrom" : "2026-03-01T18:21:38Z",
      "@validTo" : "2026-03-01T18:21:39Z",
      "@version" : 1,
      "barrier" : "kerb",
      "kerb" : "flush"
    }
  }, {
    "type" : "Feature",
    "geometry" : {
      "type" : "Point",
      "coordinates" : [
        -38.5237242,
        -13.0057382
      ]
    },
    "properties" : {
      "@changesetId" : 176110308,
      "@osmId" : "node/13387242231",
      "@osmType" : "node",
      "@validFrom" : "2026-03-01T18:21:38Z",
      "@validTo" : "2026-03-01T18:21:39Z",
      "@version" : 1,
      "highway" : "crossing"
    }
  }, {
    "type" : "Feature",
    "geometry" : {
      "type" : "Point",
      "coordinates" : [
        -38.5250026,
        -13.005562
      ]
    },
    "properties" : {
      "@changesetId" : 176110308,
      "@osmId" : "node/13387242264",
      "@osmType" : "node",
      "@validFrom" : "2026-03-01T18:21:38Z",
      "@validTo" : "2026-03-01T18:21:39Z",
      "@version" : 1,
      "barrier" : "kerb",
      "kerb" : "raised"
    }
  }, {
    "type" : "Feature",
    "geometry" : {
      "type" : "Point",
      "coordinates" : [
        -38.525018,
        -13.005481
      ]
    },
    "properties" : {
      "@changesetId" : 176110308,
      "@osmId" : "node/13387242265",
      "@osmType" : "node",
      "@validFrom" : "2026-03-01T18:21:38Z",
      "@validTo" : "2026-03-01T18:21:39Z",
      "@version" : 1,
      "barrier" : "kerb",
      "kerb" : "lowered"
    }
  }, {
    "type" : "Feature",
    "geometry" : {
      "type" : "Point",
      "coordinates" : [
        -38.5242282,
        -13.0054317
      ]
    },
    "properties" : {
      "@changesetId" : 176110308,
      "@osmId" : "node/13387242266",
      "@osmType" : "node",
      "@validFrom" : "2026-03-01T18:21:38Z",
      "@validTo" : "2026-03-01T18:21:39Z",
      "@version" : 1,
      "barrier" : "kerb",
      "kerb" : "lowered"
    }
  }, {
    "type" : "Feature",
    "geometry" : {
      "type" : "Point",
      "coordinates" : [
        -38.5242328,
        -13.0053996
      ]
    },
    "properties" : {
      "@changesetId" : 176110308,
      "@osmId" : "node/13387242267",
      "@osmType" : "node",
      "@validFrom" : "2026-03-01T18:21:38Z",
      "@validTo" : "2026-03-01T18:21:39Z",
      "@version" : 1,
      "crossing" : "uncontrolled",
      "crossing:markings" : "yes",
      "highway" : "crossing"
    }
  }, {
    "type" : "Feature",
    "geometry" : {
      "type" : "Point",
      "coordinates" : [
        -38.5242419,
        -13.0053513
      ]
    },
    "properties" : {
      "@changesetId" : 176110308,
      "@osmId" : "node/13387242268",
      "@osmType" : "node",
      "@validFrom" : "2026-03-01T18:21:38Z",
      "@validTo" : "2026-03-01T18:21:39Z",
      "@version" : 1,
      "barrier" : "kerb",
      "kerb" : "raised"
    }
  }, {
    "type" : "Feature",
    "geometry" : {
      "type" : "Point",
      "coordinates" : [
        -38.5235442,
        -13.0050222
      ]
    },
    "properties" : {
      "@changesetId" : 176110308,
      "@osmId" : "node/13387242270",
      "@osmType" : "node",
      "@validFrom" : "2026-03-01T18:21:38Z",
      "@validTo" : "2026-03-01T18:21:39Z",
      "@version" : 1,
      "barrier" : "kerb",
      "kerb" : "lowered"
    }
  }, {
    "type" : "Feature",
    "geometry" : {
      "type" : "Point",
      "coordinates" : [
        -38.5236163,
        -13.0050145
      ]
    },
    "properties" : {
      "@changesetId" : 176110308,
      "@osmId" : "node/13387242271",
      "@osmType" : "node",
      "@validFrom" : "2026-03-01T18:21:38Z",
      "@validTo" : "2026-03-01T18:21:39Z",
      "@version" : 1,
      "barrier" : "kerb",
      "kerb" : "lowered"
    }
  }, {
    "type" : "Feature",
    "geometry" : {
      "type" : "Point",
      "coordinates" : [
        -38.5232672,
        -13.0069297
      ]
    },
    "properties" : {
      "@changesetId" : 176110308,
      "@osmId" : "node/13387242273",
      "@osmType" : "node",
      "@validFrom" : "2026-03-01T18:21:38Z",
      "@validTo" : "2026-03-01T18:21:39Z",
      "@version" : 1,
      "barrier" : "kerb",
      "kerb" : "raised"
    }
  }, {
    "type" : "Feature",
    "geometry" : {
      "type" : "Point",
      "coordinates" : [
        -38.5233048,
        -13.0069224
      ]
    },
    "properties" : {
      "@changesetId" : 176110308,
      "@osmId" : "node/13387242274",
      "@osmType" : "node",
      "@validFrom" : "2026-03-01T18:21:38Z",
      "@validTo" : "2026-03-01T18:21:39Z",
      "@version" : 1,
      "crossing" : "uncontrolled",
      "crossing:markings" : "yes",
      "highway" : "crossing"
    }
  }, {
    "type" : "Feature",
    "geometry" : {
      "type" : "Point",
      "coordinates" : [
        -38.5233463,
        -13.0069172
      ]
    },
    "properties" : {
      "@changesetId" : 176110308,
      "@osmId" : "node/13387242275",
      "@osmType" : "node",
      "@validFrom" : "2026-03-01T18:21:38Z",
      "@validTo" : "2026-03-01T18:21:39Z",
      "@version" : 1,
      "barrier" : "kerb",
      "kerb" : "raised"
    }
  }, {
    "type" : "Feature",
    "geometry" : {
      "type" : "Point",
      "coordinates" : [
        -38.5231198,
        -13.0071164
      ]
    },
    "properties" : {
      "@changesetId" : 177081766,
      "@osmId" : "node/13447284833",
      "@osmType" : "node",
      "@validFrom" : "2026-03-01T18:21:38Z",
      "@validTo" : "2026-03-01T18:21:39Z",
      "@version" : 1,
      "crossing" : "uncontrolled",
      "crossing:markings" : "yes",
      "highway" : "crossing"
    }
  }, {
    "type" : "Feature",
    "geometry" : {
      "type" : "Point",
      "coordinates" : [
        -38.5231592,
        -13.0071102
      ]
    },
    "properties" : {
      "@changesetId" : 177081766,
      "@osmId" : "node/13447284834",
      "@osmType" : "node",
      "@validFrom" : "2026-03-01T18:21:38Z",
      "@validTo" : "2026-03-01T18:21:39Z",
      "@version" : 1,
      "barrier" : "kerb",
      "kerb" : "raised"
    }
  }, {
    "type" : "Feature",
    "geometry" : {
      "type" : "Point",
      "coordinates" : [
        -38.5230754,
        -13.0071235
      ]
    },
    "properties" : {
      "@changesetId" : 177081766,
      "@osmId" : "node/13447284835",
      "@osmType" : "node",
      "@validFrom" : "2026-03-01T18:21:38Z",
      "@validTo" : "2026-03-01T18:21:39Z",
      "@version" : 1,
      "barrier" : "kerb",
      "kerb" : "raised"
    }
  }, {
    "type" : "Feature",
    "geometry" : {
      "type" : "Point",
      "coordinates" : [
        -38.5229932,
        -13.0052043
      ]
    },
    "properties" : {
      "@changesetId" : 177081766,
      "@osmId" : "node/13447284887",
      "@osmType" : "node",
      "@validFrom" : "2026-03-01T18:21:38Z",
      "@validTo" : "2026-03-01T18:21:39Z",
      "@version" : 1,
      "barrier" : "kerb",
      "kerb" : "raised"
    }
  }, {
    "type" : "Feature",
    "geometry" : {
      "type" : "Point",
      "coordinates" : [
        -38.5229794,
        -13.0052201
      ]
    },
    "properties" : {
      "@changesetId" : 177081766,
      "@osmId" : "node/13447284893",
      "@osmType" : "node",
      "@validFrom" : "2026-03-01T18:21:38Z",
      "@validTo" : "2026-03-01T18:21:39Z",
      "@version" : 1,
      "crossing" : "unmarked",
      "crossing:markings" : "no",
      "highway" : "crossing"
    }
  }, {
    "type" : "Feature",
    "geometry" : {
      "type" : "Point",
      "coordinates" : [
        -38.5229615,
        -13.0052422
      ]
    },
    "properties" : {
      "@changesetId" : 177081766,
      "@osmId" : "node/13447284894",
      "@osmType" : "node",
      "@validFrom" : "2026-03-01T18:21:38Z",
      "@validTo" : "2026-03-01T18:21:39Z",
      "@version" : 1,
      "barrier" : "kerb",
      "kerb" : "raised"
    }
  }]
}
